{"type":"FeatureCollection","name":"dim_stadt","features":[{"type":"Feature","id":"dim-stadt","geometry":{"type":"Polygon","coordinates":[[[11.243237,51.321902],[11.238551,51.307911],[11.256768,51.309686],[11.262709,51.310181],[11.264953,51.311502],[11.280398,51.313854],[11.290035,51.312121],[11.290035,51.308612],[11.299078,51.305888],[11.30317,51.302752],[11.30317,51.30106],[11.312675,51.301018],[11.316767,51.299986],[11.320068,51.300234],[11.336701,51.313978],[11.298946,51.330033],[11.283104,51.336059],[11.25261,51.32962],[11.243237,51.321902]]]},"properties":{"name":"Dim Stadt","kategorie":"Stadtgebiet","feature_typ":"Gemeindegrenze","land":"Deutschland","bundesland":"Thüringen","landkreis":"Kyffhäuserkreis","flaeche_km2":14.62,"umfang_km":17.94,"nachbarorte":["Heldrungen","Braunsroda","Reinsdorf","Gehofen","Nausitz"],"quelle":"Digitalisiert aus Google-Maps-Screenshot (Messwerkzeug: 14,60 km², 17,95 km) vom 2026-09-24","genauigkeit_m":50,"stroke":"#b3261e","stroke-width":3,"fill-opacity":0.0},"links":[{"href":"http://localhost:8080/collections/dim_stadt/items/dim-stadt","rel":"self","type":"application/geo+json"},{"href":"http://localhost:8080/collections/dim_stadt","rel":"collection","type":"application/json"}]},{"type":"Feature","id":"dim-stadt-mitte","geometry":{"type":"Point","coordinates":[11.286276,51.312022]},"properties":{"name":"Dim Stadt","kategorie":"Stadtmitte","feature_typ":"Ortsmittelpunkt","hinweis":"Schwerpunkt der Stadtgrenze","marker-color":"#b3261e"},"links":[{"href":"http://localhost:8080/collections/dim_stadt/items/dim-stadt-mitte","rel":"self","type":"application/geo+json"},{"href":"http://localhost:8080/collections/dim_stadt","rel":"collection","type":"application/json"}]}]}