{"type":"FeatureCollection","name":"orte","features":[{"type":"Feature","id":"orte-1","geometry":{"type":"Point","coordinates":[11.281012,51.324437]},"properties":{"name":"Marktbrunnen","kategorie":"Brunnen","marker-color":"#0ea5e9"},"links":[{"href":"http://localhost:8080/collections/orte/items/orte-1","rel":"self","type":"application/geo+json"}]},{"type":"Feature","id":"orte-2","geometry":{"type":"Point","coordinates":[11.281856,51.32391]},"properties":{"name":"Rathaus","kategorie":"Rathaus","marker-color":"#7c2d12"},"links":[{"href":"http://localhost:8080/collections/orte/items/orte-2","rel":"self","type":"application/geo+json"}]},{"type":"Feature","id":"orte-3","geometry":{"type":"Point","coordinates":[11.280622,51.323808]},"properties":{"name":"Stadttheater","kategorie":"Theater","marker-color":"#be185d"},"links":[{"href":"http://localhost:8080/collections/orte/items/orte-3","rel":"self","type":"application/geo+json"}]},{"type":"Feature","id":"orte-4","geometry":{"type":"Point","coordinates":[11.281068,51.32516]},"properties":{"name":"Stadtkirche St. Dimitri","kategorie":"Kirche","marker-color":"#5b21b6"},"links":[{"href":"http://localhost:8080/collections/orte/items/orte-4","rel":"self","type":"application/geo+json"}]},{"type":"Feature","id":"orte-5","geometry":{"type":"Point","coordinates":[11.279831,51.32449]},"properties":{"name":"Stadtmuseum","kategorie":"Museum","marker-color":"#1d4ed8"},"links":[{"href":"http://localhost:8080/collections/orte/items/orte-5","rel":"self","type":"application/geo+json"}]},{"type":"Feature","id":"orte-6","geometry":{"type":"Point","coordinates":[11.281796,51.325207]},"properties":{"name":"Apotheke","kategorie":"Laden","marker-color":"#c2703e"},"links":[{"href":"http://localhost:8080/collections/orte/items/orte-6","rel":"self","type":"application/geo+json"}]},{"type":"Feature","id":"orte-7","geometry":{"type":"Point","coordinates":[11.282851,51.324359]},"properties":{"name":"Gasthaus Schwarzer Adler","kategorie":"Gasthaus","marker-color":"#d4a017"},"links":[{"href":"http://localhost:8080/collections/orte/items/orte-7","rel":"self","type":"application/geo+json"}]},{"type":"Feature","id":"orte-8","geometry":{"type":"Point","coordinates":[11.279208,51.325056]},"properties":{"name":"Gasthaus Zum Kupferkessel","kategorie":"Gasthaus","marker-color":"#d4a017"},"links":[{"href":"http://localhost:8080/collections/orte/items/orte-8","rel":"self","type":"application/geo+json"}]},{"type":"Feature","id":"orte-9","geometry":{"type":"Point","coordinates":[11.279366,51.324949]},"properties":{"name":"Drogerie","kategorie":"Laden","marker-color":"#c2703e"},"links":[{"href":"http://localhost:8080/collections/orte/items/orte-9","rel":"self","type":"application/geo+json"}]},{"type":"Feature","id":"orte-10","geometry":{"type":"Point","coordinates":[11.27969,51.324907]},"properties":{"name":"Schuhmacher","kategorie":"Laden","marker-color":"#c2703e"},"links":[{"href":"http://localhost:8080/collections/orte/items/orte-10","rel":"self","type":"application/geo+json"}]},{"type":"Feature","id":"orte-11","geometry":{"type":"Point","coordinates":[11.279092,51.324305]},"properties":{"name":"Gasthaus Ratskeller","kategorie":"Gasthaus","marker-color":"#d4a017"},"links":[{"href":"http://localhost:8080/collections/orte/items/orte-11","rel":"self","type":"application/geo+json"}]},{"type":"Feature","id":"orte-12","geometry":{"type":"Point","coordinates":[11.281905,51.32309]},"properties":{"name":"Gemischtwaren","kategorie":"Laden","marker-color":"#c2703e"},"links":[{"href":"http://localhost:8080/collections/orte/items/orte-12","rel":"self","type":"application/geo+json"}]},{"type":"Feature","id":"orte-13","geometry":{"type":"Point","coordinates":[11.280792,51.326158]},"properties":{"name":"Gasthaus Zur Linde","kategorie":"Gasthaus","marker-color":"#d4a017"},"links":[{"href":"http://localhost:8080/collections/orte/items/orte-13","rel":"self","type":"application/geo+json"}]},{"type":"Feature","id":"orte-14","geometry":{"type":"Point","coordinates":[11.281595,51.322693]},"properties":{"name":"Tuchhandel","kategorie":"Laden","marker-color":"#c2703e"},"links":[{"href":"http://localhost:8080/collections/orte/items/orte-14","rel":"self","type":"application/geo+json"}]},{"type":"Feature","id":"orte-15","geometry":{"type":"Point","coordinates":[11.278754,51.325868]},"properties":{"name":"Gasthaus Unstrutblick","kategorie":"Gasthaus","marker-color":"#d4a017"},"links":[{"href":"http://localhost:8080/collections/orte/items/orte-15","rel":"self","type":"application/geo+json"}]},{"type":"Feature","id":"orte-16","geometry":{"type":"Point","coordinates":[11.279342,51.325999]},"properties":{"name":"Bäckerei","kategorie":"Laden","marker-color":"#c2703e"},"links":[{"href":"http://localhost:8080/collections/orte/items/orte-16","rel":"self","type":"application/geo+json"}]},{"type":"Feature","id":"orte-17","geometry":{"type":"Point","coordinates":[11.279311,51.325818]},"properties":{"name":"Goldschmied","kategorie":"Laden","marker-color":"#c2703e"},"links":[{"href":"http://localhost:8080/collections/orte/items/orte-17","rel":"self","type":"application/geo+json"}]},{"type":"Feature","id":"orte-18","geometry":{"type":"Point","coordinates":[11.28331,51.323664]},"properties":{"name":"Sattlerei","kategorie":"Laden","marker-color":"#c2703e"},"links":[{"href":"http://localhost:8080/collections/orte/items/orte-18","rel":"self","type":"application/geo+json"}]},{"type":"Feature","id":"orte-19","geometry":{"type":"Point","coordinates":[11.282938,51.325237]},"properties":{"name":"Fleischerei","kategorie":"Laden","marker-color":"#c2703e"},"links":[{"href":"http://localhost:8080/collections/orte/items/orte-19","rel":"self","type":"application/geo+json"}]},{"type":"Feature","id":"orte-20","geometry":{"type":"Point","coordinates":[11.280431,51.323035]},"properties":{"name":"Gasthaus Weißes Ross","kategorie":"Gasthaus","marker-color":"#d4a017"},"links":[{"href":"http://localhost:8080/collections/orte/items/orte-20","rel":"self","type":"application/geo+json"}]},{"type":"Feature","id":"orte-21","geometry":{"type":"Point","coordinates":[11.280421,51.322839]},"properties":{"name":"Töpferei","kategorie":"Laden","marker-color":"#c2703e"},"links":[{"href":"http://localhost:8080/collections/orte/items/orte-21","rel":"self","type":"application/geo+json"}]},{"type":"Feature","id":"orte-22","geometry":{"type":"Point","coordinates":[11.27784,51.324354]},"properties":{"name":"Gasthaus Zur Krone","kategorie":"Gasthaus","marker-color":"#d4a017"},"links":[{"href":"http://localhost:8080/collections/orte/items/orte-22","rel":"self","type":"application/geo+json"}]},{"type":"Feature","id":"orte-23","geometry":{"type":"Point","coordinates":[11.278355,51.324628]},"properties":{"name":"Buchhandlung","kategorie":"Laden","marker-color":"#c2703e"},"links":[{"href":"http://localhost:8080/collections/orte/items/orte-23","rel":"self","type":"application/geo+json"}]},{"type":"Feature","id":"orte-24","geometry":{"type":"Point","coordinates":[11.279917,51.326041]},"properties":{"name":"Uhrmacher","kategorie":"Laden","marker-color":"#c2703e"},"links":[{"href":"http://localhost:8080/collections/orte/items/orte-24","rel":"self","type":"application/geo+json"}]},{"type":"Feature","id":"orte-25","geometry":{"type":"Point","coordinates":[11.280782,51.322531]},"properties":{"name":"Gasthaus Grüner Baum","kategorie":"Gasthaus","marker-color":"#d4a017"},"links":[{"href":"http://localhost:8080/collections/orte/items/orte-25","rel":"self","type":"application/geo+json"}]},{"type":"Feature","id":"orte-26","geometry":{"type":"Point","coordinates":[11.281571,51.326244]},"properties":{"name":"Eisenwaren","kategorie":"Laden","marker-color":"#c2703e"},"links":[{"href":"http://localhost:8080/collections/orte/items/orte-26","rel":"self","type":"application/geo+json"}]},{"type":"Feature","id":"orte-27","geometry":{"type":"Point","coordinates":[11.282877,51.322881]},"properties":{"name":"Gasthaus Zur Sonne","kategorie":"Gasthaus","marker-color":"#d4a017"},"links":[{"href":"http://localhost:8080/collections/orte/items/orte-27","rel":"self","type":"application/geo+json"}]},{"type":"Feature","id":"orte-28","geometry":{"type":"Point","coordinates":[11.283618,51.32271]},"properties":{"name":"Weinhandlung","kategorie":"Laden","marker-color":"#c2703e"},"links":[{"href":"http://localhost:8080/collections/orte/items/orte-28","rel":"self","type":"application/geo+json"}]},{"type":"Feature","id":"orte-29","geometry":{"type":"Point","coordinates":[11.28243,51.322442]},"properties":{"name":"Gasthaus Zur Schmücke","kategorie":"Gasthaus","marker-color":"#d4a017"},"links":[{"href":"http://localhost:8080/collections/orte/items/orte-29","rel":"self","type":"application/geo+json"}]},{"type":"Feature","id":"orte-30","geometry":{"type":"Point","coordinates":[11.277246,51.325287]},"properties":{"name":"Gasthaus Zum Hirsch","kategorie":"Gasthaus","marker-color":"#d4a017"},"links":[{"href":"http://localhost:8080/collections/orte/items/orte-30","rel":"self","type":"application/geo+json"}]},{"type":"Feature","id":"orte-31","geometry":{"type":"Point","coordinates":[11.280064,51.326906]},"properties":{"name":"Gasthaus Zum Anker","kategorie":"Gasthaus","marker-color":"#d4a017"},"links":[{"href":"http://localhost:8080/collections/orte/items/orte-31","rel":"self","type":"application/geo+json"}]},{"type":"Feature","id":"orte-32","geometry":{"type":"Point","coordinates":[11.281778,51.322222]},"properties":{"name":"Gasthaus Drei Rosen","kategorie":"Gasthaus","marker-color":"#d4a017"},"links":[{"href":"http://localhost:8080/collections/orte/items/orte-32","rel":"self","type":"application/geo+json"}]},{"type":"Feature","id":"orte-33","geometry":{"type":"Point","coordinates":[11.281829,51.321952]},"properties":{"name":"Gasthaus Alte Post","kategorie":"Gasthaus","marker-color":"#d4a017"},"links":[{"href":"http://localhost:8080/collections/orte/items/orte-33","rel":"self","type":"application/geo+json"}]},{"type":"Feature","id":"orte-34","geometry":{"type":"Point","coordinates":[11.28198,51.32705]},"properties":{"name":"Gasthaus Zum Goldenen Löwen","kategorie":"Gasthaus","marker-color":"#d4a017"},"links":[{"href":"http://localhost:8080/collections/orte/items/orte-34","rel":"self","type":"application/geo+json"}]},{"type":"Feature","id":"orte-35","geometry":{"type":"Point","coordinates":[11.277861,51.322873]},"properties":{"name":"Gasthaus Zum Bären","kategorie":"Gasthaus","marker-color":"#d4a017"},"links":[{"href":"http://localhost:8080/collections/orte/items/orte-35","rel":"self","type":"application/geo+json"}]},{"type":"Feature","id":"orte-36","geometry":{"type":"Point","coordinates":[11.286163,51.324614]},"properties":{"name":"Dimstädter Gymnasium","kategorie":"Schule","marker-color":"#0e7490"},"links":[{"href":"http://localhost:8080/collections/orte/items/orte-36","rel":"self","type":"application/geo+json"}]},{"type":"Feature","id":"orte-37","geometry":{"type":"Point","coordinates":[11.275619,51.320745]},"properties":{"name":"Friedhof","kategorie":"Friedhof","marker-color":"#16a34a"},"links":[{"href":"http://localhost:8080/collections/orte/items/orte-37","rel":"self","type":"application/geo+json"}]},{"type":"Feature","id":"orte-38","geometry":{"type":"Point","coordinates":[11.281902,51.319298]},"properties":{"name":"Schillerpark","kategorie":"Park","marker-color":"#16a34a"},"links":[{"href":"http://localhost:8080/collections/orte/items/orte-38","rel":"self","type":"application/geo+json"}]},{"type":"Feature","id":"orte-39","geometry":{"type":"Point","coordinates":[11.284872,51.319769]},"properties":{"name":"Volkspark","kategorie":"Park","marker-color":"#16a34a"},"links":[{"href":"http://localhost:8080/collections/orte/items/orte-39","rel":"self","type":"application/geo+json"}]},{"type":"Feature","id":"orte-40","geometry":{"type":"Point","coordinates":[11.289435,51.326362]},"properties":{"name":"Kreiskrankenhaus","kategorie":"Krankenhaus","marker-color":"#dc2626"},"links":[{"href":"http://localhost:8080/collections/orte/items/orte-40","rel":"self","type":"application/geo+json"}]},{"type":"Feature","id":"orte-41","geometry":{"type":"Point","coordinates":[11.288987,51.327911]},"properties":{"name":"Rosengarten","kategorie":"Park","marker-color":"#16a34a"},"links":[{"href":"http://localhost:8080/collections/orte/items/orte-41","rel":"self","type":"application/geo+json"}]},{"type":"Feature","id":"orte-42","geometry":{"type":"Point","coordinates":[11.270726,51.324944]},"properties":{"name":"Stadtpark","kategorie":"Park","marker-color":"#16a34a"},"links":[{"href":"http://localhost:8080/collections/orte/items/orte-42","rel":"self","type":"application/geo+json"}]},{"type":"Feature","id":"orte-43","geometry":{"type":"Point","coordinates":[11.291199,51.327073]},"properties":{"name":"Lindenpark","kategorie":"Park","marker-color":"#16a34a"},"links":[{"href":"http://localhost:8080/collections/orte/items/orte-43","rel":"self","type":"application/geo+json"}]},{"type":"Feature","id":"orte-44","geometry":{"type":"Point","coordinates":[11.305537,51.322198]},"properties":{"name":"Sportplatz","kategorie":"Sportplatz","marker-color":"#16a34a"},"links":[{"href":"http://localhost:8080/collections/orte/items/orte-44","rel":"self","type":"application/geo+json"}]},{"type":"Feature","id":"orte-45","geometry":{"type":"Point","coordinates":[11.282503,51.325637]},"properties":{"name":"Feuerwache Dim Stadt","kategorie":"Feuerwache","marker-color":"#b91c1c"},"links":[{"href":"http://localhost:8080/collections/orte/items/orte-45","rel":"self","type":"application/geo+json"}]},{"type":"Feature","id":"orte-46","geometry":{"type":"Point","coordinates":[11.28566,51.32529]},"properties":{"name":"Postamt","kategorie":"Post","marker-color":"#ca8a04"},"links":[{"href":"http://localhost:8080/collections/orte/items/orte-46","rel":"self","type":"application/geo+json"}]},{"type":"Feature","id":"orte-47","geometry":{"type":"Point","coordinates":[11.284712,51.323053]},"properties":{"name":"Stadtbibliothek","kategorie":"Bibliothek","marker-color":"#4338ca"},"links":[{"href":"http://localhost:8080/collections/orte/items/orte-47","rel":"self","type":"application/geo+json"}]},{"type":"Feature","id":"orte-48","geometry":{"type":"Point","coordinates":[11.276244,51.326458]},"properties":{"name":"Brauerei Dimstädter","kategorie":"Brauerei","marker-color":"#92400e"},"links":[{"href":"http://localhost:8080/collections/orte/items/orte-48","rel":"self","type":"application/geo+json"}]},{"type":"Feature","id":"orte-49","geometry":{"type":"Point","coordinates":[11.246754,51.311559]},"properties":{"name":"Gehöft Brückner","kategorie":"Gehöft","marker-color":"#a16207"},"links":[{"href":"http://localhost:8080/collections/orte/items/orte-49","rel":"self","type":"application/geo+json"}]},{"type":"Feature","id":"orte-50","geometry":{"type":"Point","coordinates":[11.24831,51.31031]},"properties":{"name":"Gehöft Thiele","kategorie":"Gehöft","marker-color":"#a16207"},"links":[{"href":"http://localhost:8080/collections/orte/items/orte-50","rel":"self","type":"application/geo+json"}]},{"type":"Feature","id":"orte-51","geometry":{"type":"Point","coordinates":[11.327933,51.312019]},"properties":{"name":"Gehöft Bornemann","kategorie":"Gehöft","marker-color":"#a16207"},"links":[{"href":"http://localhost:8080/collections/orte/items/orte-51","rel":"self","type":"application/geo+json"}]},{"type":"Feature","id":"orte-52","geometry":{"type":"Point","coordinates":[11.300828,51.311746]},"properties":{"name":"Gehöft Ulrich","kategorie":"Gehöft","marker-color":"#a16207"},"links":[{"href":"http://localhost:8080/collections/orte/items/orte-52","rel":"self","type":"application/geo+json"}]},{"type":"Feature","id":"orte-woge","geometry":{"type":"Point","coordinates":[11.2976296,51.307609]},"properties":{"name":"Freizeitbad WOGE","kategorie":"Freizeitbad","marker-color":"#0277bd"}}]}