{"type":"FeatureCollection","name":"stadtteile","features":[{"type":"Feature","id":"stadtteile-1","geometry":{"type":"Polygon","coordinates":[[[11.27873,51.326489],[11.279849,51.324213],[11.278095,51.322313],[11.262753,51.320956],[11.262744,51.321375],[11.262829,51.322175],[11.262983,51.322952],[11.263175,51.323706],[11.263376,51.324437],[11.263563,51.325152],[11.263722,51.32586],[11.263847,51.326572],[11.263946,51.327297],[11.264032,51.328042],[11.264129,51.32881],[11.264266,51.329602],[11.264459,51.330355],[11.27873,51.326489]]]},"properties":{"name":"Westend","typ":"Stadtteil","flaeche_km2":0.815,"fill":"#ef4444","fill-opacity":0.08,"stroke":"#ef4444","stroke-width":1.5,"stroke-dasharray":"6 4","gebaeude":1006,"einwohner":7684},"links":[{"href":"http://localhost:8080/collections/stadtteile/items/stadtteile-1","rel":"self","type":"application/geo+json"}]},{"type":"Feature","id":"stadtteile-2","geometry":{"type":"Polygon","coordinates":[[[11.278095,51.322313],[11.279849,51.324213],[11.291001,51.323569],[11.294503,51.319344],[11.29439,51.318846],[11.294126,51.318143],[11.293738,51.317457],[11.293212,51.316807],[11.292544,51.316213],[11.291741,51.315693],[11.290817,51.31526],[11.289795,51.314922],[11.288702,51.314684],[11.287567,51.31454],[11.286416,51.314481],[11.285273,51.314492],[11.284155,51.314554],[11.283073,51.314647],[11.282028,51.31475],[11.281012,51.314846],[11.280083,51.314915],[11.278095,51.322313]]]},"properties":{"name":"Lindenhof","typ":"Stadtteil","flaeche_km2":0.98,"fill":"#f59e0b","fill-opacity":0.08,"stroke":"#f59e0b","stroke-width":1.5,"stroke-dasharray":"6 4","gebaeude":1128,"einwohner":7519},"links":[{"href":"http://localhost:8080/collections/stadtteile/items/stadtteile-2","rel":"self","type":"application/geo+json"}]},{"type":"Feature","id":"stadtteile-3","geometry":{"type":"Polygon","coordinates":[[[11.278095,51.322313],[11.280083,51.314915],[11.280015,51.31492],[11.279019,51.314965],[11.278004,51.314979],[11.276955,51.314967],[11.275857,51.314938],[11.274703,51.31491],[11.273493,51.314901],[11.272238,51.314932],[11.270955,51.315023],[11.269669,51.315191],[11.268413,51.315451],[11.26722,51.315811],[11.266124,51.316271],[11.265155,51.316827],[11.264339,51.317469],[11.263691,51.318182],[11.263217,51.318948],[11.262912,51.319748],[11.262762,51.320562],[11.262753,51.320956],[11.278095,51.322313]]]},"properties":{"name":"Weinberg","typ":"Stadtteil","flaeche_km2":0.76,"fill":"#10b981","fill-opacity":0.08,"stroke":"#10b981","stroke-width":1.5,"stroke-dasharray":"6 4","gebaeude":795,"einwohner":5778},"links":[{"href":"http://localhost:8080/collections/stadtteile/items/stadtteile-3","rel":"self","type":"application/geo+json"}]},{"type":"Feature","id":"stadtteile-4","geometry":{"type":"Polygon","coordinates":[[[11.27873,51.326489],[11.264459,51.330355],[11.264473,51.330409],[11.264779,51.331221],[11.265137,51.331886],[11.280217,51.33507],[11.281012,51.334912],[11.282088,51.334704],[11.283135,51.33452],[11.28417,51.334364],[11.284499,51.334323],[11.27873,51.326489]]]},"properties":{"name":"Neustadt","typ":"Stadtteil","flaeche_km2":0.723,"fill":"#3b82f6","fill-opacity":0.08,"stroke":"#3b82f6","stroke-width":1.5,"stroke-dasharray":"6 4","gebaeude":833,"einwohner":4883},"links":[{"href":"http://localhost:8080/collections/stadtteile/items/stadtteile-4","rel":"self","type":"application/geo+json"}]},{"type":"Feature","id":"stadtteile-5","geometry":{"type":"Polygon","coordinates":[[[11.291001,51.323569],[11.279849,51.324213],[11.27873,51.326489],[11.284499,51.334323],[11.28521,51.334234],[11.286269,51.334122],[11.287355,51.334014],[11.287382,51.334011],[11.295852,51.330789],[11.291001,51.323569]]]},"properties":{"name":"Altstadt","typ":"Stadtteil","flaeche_km2":0.942,"fill":"#8b5cf6","fill-opacity":0.08,"stroke":"#8b5cf6","stroke-width":1.5,"stroke-dasharray":"6 4","gebaeude":1081,"einwohner":7844},"links":[{"href":"http://localhost:8080/collections/stadtteile/items/stadtteile-5","rel":"self","type":"application/geo+json"}]},{"type":"Feature","id":"stadtteile-6","geometry":{"type":"Polygon","coordinates":[[[11.291001,51.323569],[11.295852,51.330789],[11.296194,51.330659],[11.296514,51.330122],[11.296605,51.330184],[11.296959,51.330368],[11.298635,51.329731],[11.305625,51.326758],[11.30572,51.326548],[11.305772,51.326262],[11.305748,51.325974],[11.305648,51.325693],[11.305477,51.325423],[11.305244,51.325171],[11.304961,51.32494],[11.30464,51.324732],[11.304295,51.324547],[11.303939,51.324383],[11.303879,51.324358],[11.303971,51.324246],[11.304134,51.324076],[11.304316,51.323922],[11.304525,51.323779],[11.304765,51.323643],[11.305037,51.323508],[11.305336,51.323367],[11.305656,51.323214],[11.305985,51.323044],[11.30631,51.322852],[11.306614,51.322637],[11.306883,51.3224],[11.3071,51.322143],[11.307253,51.32187],[11.307333,51.321589],[11.307333,51.321306],[11.307252,51.321029],[11.307092,51.320766],[11.306862,51.320523],[11.306572,51.320303],[11.306233,51.320112],[11.305861,51.319948],[11.305469,51.31981],[11.30507,51.319696],[11.304676,51.319599],[11.304294,51.319514],[11.30393,51.319435],[11.303585,51.319357],[11.303257,51.319274],[11.302942,51.319183],[11.302635,51.319084],[11.302327,51.318976],[11.302014,51.318863],[11.301688,51.318749],[11.301346,51.318641],[11.300986,51.318544],[11.300609,51.318465],[11.300217,51.31841],[11.299818,51.318385],[11.299416,51.318393],[11.29902,51.318435],[11.298638,51.318512],[11.298276,51.318621],[11.29794,51.318758],[11.297633,51.318919],[11.297355,51.319098],[11.297107,51.319289],[11.296884,51.319486],[11.296681,51.319686],[11.296492,51.319885],[11.296312,51.320081],[11.296135,51.320273],[11.295957,51.320463],[11.295775,51.320652],[11.29559,51.320842],[11.295404,51.321038],[11.295222,51.32124],[11.295051,51.321451],[11.294897,51.321672],[11.294769,51.321903],[11.29474,51.321978],[11.294705,51.32153],[11.294675,51.320897],[11.294634,51.320235],[11.29455,51.319549],[11.294503,51.319344],[11.291001,51.323569]]]},"properties":{"name":"Oststadt","typ":"Stadtteil","flaeche_km2":0.972,"fill":"#ec4899","fill-opacity":0.08,"stroke":"#ec4899","stroke-width":1.5,"stroke-dasharray":"6 4","gebaeude":954,"einwohner":5860},"links":[{"href":"http://localhost:8080/collections/stadtteile/items/stadtteile-6","rel":"self","type":"application/geo+json"}]},{"type":"Feature","id":"stadtteile-7","geometry":{"type":"Polygon","coordinates":[[[11.283104,51.336059],[11.293359,51.332158],[11.29294,51.331897],[11.287382,51.334011],[11.287355,51.334014],[11.286269,51.334122],[11.28521,51.334234],[11.28417,51.334364],[11.283135,51.33452],[11.282088,51.334704],[11.281012,51.334912],[11.280217,51.33507],[11.268101,51.332512],[11.267648,51.332795],[11.283104,51.336059]]]},"properties":{"name":"Umland Nord","typ":"Umland","flaeche_km2":0.11,"fill":"#14b8a6","fill-opacity":0.08,"stroke":"#14b8a6","stroke-width":1.5,"stroke-dasharray":"6 4","gebaeude":31,"einwohner":83},"links":[{"href":"http://localhost:8080/collections/stadtteile/items/stadtteile-7","rel":"self","type":"application/geo+json"}]},{"type":"Feature","id":"stadtteile-8","geometry":{"type":"Polygon","coordinates":[[[11.298946,51.330033],[11.336701,51.313978],[11.320068,51.300234],[11.319749,51.30021],[11.293212,51.316807],[11.293738,51.317457],[11.294126,51.318143],[11.29439,51.318846],[11.29455,51.319549],[11.294634,51.320235],[11.294675,51.320897],[11.294705,51.32153],[11.29474,51.321978],[11.294769,51.321903],[11.294897,51.321672],[11.295051,51.321451],[11.295222,51.32124],[11.295404,51.321038],[11.29559,51.320842],[11.295775,51.320652],[11.295957,51.320463],[11.296135,51.320273],[11.296312,51.320081],[11.296492,51.319885],[11.296681,51.319686],[11.296884,51.319486],[11.297107,51.319289],[11.297355,51.319098],[11.297633,51.318919],[11.29794,51.318758],[11.298276,51.318621],[11.298638,51.318512],[11.29902,51.318435],[11.299416,51.318393],[11.299818,51.318385],[11.300217,51.31841],[11.300609,51.318465],[11.300986,51.318544],[11.301346,51.318641],[11.301688,51.318749],[11.302014,51.318863],[11.302327,51.318976],[11.302635,51.319084],[11.302942,51.319183],[11.303257,51.319274],[11.303585,51.319357],[11.30393,51.319435],[11.304294,51.319514],[11.304676,51.319599],[11.30507,51.319696],[11.305469,51.31981],[11.305861,51.319948],[11.306233,51.320112],[11.306572,51.320303],[11.306862,51.320523],[11.307092,51.320766],[11.307252,51.321029],[11.307333,51.321306],[11.307333,51.321589],[11.307253,51.32187],[11.3071,51.322143],[11.306883,51.3224],[11.306614,51.322637],[11.30631,51.322852],[11.305985,51.323044],[11.305656,51.323214],[11.305336,51.323367],[11.305037,51.323508],[11.304765,51.323643],[11.304525,51.323779],[11.304316,51.323922],[11.304134,51.324076],[11.303971,51.324246],[11.303879,51.324358],[11.303939,51.324383],[11.304295,51.324547],[11.30464,51.324732],[11.304961,51.32494],[11.305244,51.325171],[11.305477,51.325423],[11.305648,51.325693],[11.305748,51.325974],[11.305772,51.326262],[11.30572,51.326548],[11.305625,51.326758],[11.298635,51.329731],[11.296959,51.330368],[11.296605,51.330184],[11.296514,51.330122],[11.296194,51.330659],[11.29294,51.331897],[11.293359,51.332158],[11.298946,51.330033]]]},"properties":{"name":"Umland Ost","typ":"Umland","flaeche_km2":4.156,"fill":"#f97316","fill-opacity":0.08,"stroke":"#f97316","stroke-width":1.5,"stroke-dasharray":"6 4","gebaeude":49,"einwohner":130},"links":[{"href":"http://localhost:8080/collections/stadtteile/items/stadtteile-8","rel":"self","type":"application/geo+json"}]},{"type":"Feature","id":"stadtteile-9","geometry":{"type":"Polygon","coordinates":[[[11.316767,51.299986],[11.312675,51.301018],[11.30317,51.30106],[11.30317,51.302752],[11.299078,51.305888],[11.290035,51.308612],[11.290035,51.312121],[11.280398,51.313854],[11.264953,51.311502],[11.262709,51.310181],[11.257528,51.309749],[11.26722,51.315811],[11.268413,51.315451],[11.269669,51.315191],[11.270955,51.315023],[11.272238,51.314932],[11.273493,51.314901],[11.274703,51.31491],[11.275857,51.314938],[11.276955,51.314967],[11.278004,51.314979],[11.279019,51.314965],[11.280015,51.31492],[11.281012,51.314846],[11.282028,51.31475],[11.283073,51.314647],[11.284155,51.314554],[11.285273,51.314492],[11.286416,51.314481],[11.287567,51.31454],[11.288702,51.314684],[11.289795,51.314922],[11.290817,51.31526],[11.291741,51.315693],[11.292544,51.316213],[11.293212,51.316807],[11.293212,51.316807],[11.319749,51.30021],[11.316767,51.299986]]]},"properties":{"name":"Umland Süd","typ":"Umland","flaeche_km2":1.911,"fill":"#84cc16","fill-opacity":0.08,"stroke":"#84cc16","stroke-width":1.5,"stroke-dasharray":"6 4","gebaeude":34,"einwohner":93},"links":[{"href":"http://localhost:8080/collections/stadtteile/items/stadtteile-9","rel":"self","type":"application/geo+json"}]},{"type":"Feature","id":"stadtteile-10","geometry":{"type":"Polygon","coordinates":[[[11.267648,51.332795],[11.268101,51.332512],[11.265137,51.331886],[11.264779,51.331221],[11.264473,51.330409],[11.264266,51.329602],[11.264129,51.32881],[11.264032,51.328042],[11.263946,51.327297],[11.263847,51.326572],[11.263722,51.32586],[11.263563,51.325152],[11.263376,51.324437],[11.263175,51.323706],[11.262983,51.322952],[11.262829,51.322175],[11.262744,51.321375],[11.262762,51.320562],[11.262912,51.319748],[11.263217,51.318948],[11.263691,51.318182],[11.264339,51.317469],[11.265155,51.316827],[11.266124,51.316271],[11.26722,51.315811],[11.26722,51.315811],[11.257528,51.309749],[11.256768,51.309686],[11.238551,51.307911],[11.243237,51.321902],[11.25261,51.32962],[11.267648,51.332795]]]},"properties":{"name":"Umland West","typ":"Umland","flaeche_km2":3.254,"fill":"#06b6d4","fill-opacity":0.08,"stroke":"#06b6d4","stroke-width":1.5,"stroke-dasharray":"6 4","gebaeude":43,"einwohner":122},"links":[{"href":"http://localhost:8080/collections/stadtteile/items/stadtteile-10","rel":"self","type":"application/geo+json"}]}]}