{"type":"FeatureCollection","name":"strassen","features":[{"type":"Feature","id":"strassen-1","geometry":{"type":"LineString","coordinates":[[11.281012,51.324437],[11.275971,51.322428],[11.271187,51.320567],[11.262543,51.317143],[11.256636,51.314778],[11.249594,51.312057],[11.244079,51.30998],[11.238832,51.307938]]},"properties":{"name":"Heldrunger Straße","klasse":"Hauptstraße","breite_m":16.0,"laenge_m":3462,"richtung":"radial","stroke":"#7c2d12","stroke-width":5},"links":[{"href":"http://localhost:8080/collections/strassen/items/strassen-1","rel":"self","type":"application/geo+json"}]},{"type":"Feature","id":"strassen-2","geometry":{"type":"LineString","coordinates":[[11.281012,51.324437],[11.278746,51.327021],[11.27688,51.32925],[11.276867,51.329465],[11.276956,51.329893],[11.276889,51.330103],[11.276899,51.330247],[11.276824,51.330457],[11.276831,51.3306],[11.276721,51.330879],[11.276711,51.331022],[11.276508,51.331506],[11.276491,51.331649],[11.276376,51.331852],[11.276356,51.331995],[11.276241,51.332198],[11.276222,51.332341],[11.276109,51.332544],[11.276066,51.332757],[11.275981,51.33289],[11.275965,51.333034],[11.275781,51.333521],[11.275703,51.333946],[11.275552,51.334464]]},"properties":{"name":"Reinsdorfer Straße","klasse":"Hauptstraße","breite_m":16.0,"laenge_m":1201,"richtung":"radial","stroke":"#7c2d12","stroke-width":5},"links":[{"href":"http://localhost:8080/collections/strassen/items/strassen-2","rel":"self","type":"application/geo+json"}]},{"type":"Feature","id":"strassen-3","geometry":{"type":"LineString","coordinates":[[11.281012,51.324437],[11.285867,51.325021],[11.289718,51.325439],[11.297106,51.326141],[11.300531,51.326396],[11.303281,51.326537],[11.303603,51.326463],[11.3041,51.326282],[11.304421,51.326207],[11.304649,51.326188],[11.305086,51.326103],[11.305881,51.326038],[11.30634,51.326047],[11.306566,51.326025],[11.308261,51.326072]]},"properties":{"name":"Gehofener Straße","klasse":"Hauptstraße","breite_m":16.0,"laenge_m":1925,"richtung":"radial","stroke":"#7c2d12","stroke-width":5},"links":[{"href":"http://localhost:8080/collections/strassen/items/strassen-3","rel":"self","type":"application/geo+json"}]},{"type":"Feature","id":"strassen-4","geometry":{"type":"LineString","coordinates":[[11.265199,51.318195],[11.262409,51.316807],[11.257774,51.314446],[11.252727,51.311946],[11.247753,51.309389]]},"properties":{"name":"Braunsrodaer Straße","klasse":"Hauptstraße","breite_m":16.0,"laenge_m":1560,"richtung":"radial","stroke":"#7c2d12","stroke-width":5},"links":[{"href":"http://localhost:8080/collections/strassen/items/strassen-4","rel":"self","type":"application/geo+json"}]},{"type":"Feature","id":"strassen-5","geometry":{"type":"LineString","coordinates":[[11.278529,51.32728],[11.272179,51.329304],[11.269501,51.330135],[11.267098,51.330826],[11.263248,51.331866]]},"properties":{"name":"Bretlebener Straße","klasse":"Hauptstraße","breite_m":16.0,"laenge_m":1180,"richtung":"radial","stroke":"#7c2d12","stroke-width":5},"links":[{"href":"http://localhost:8080/collections/strassen/items/strassen-5","rel":"self","type":"application/geo+json"}]},{"type":"Feature","id":"strassen-6","geometry":{"type":"LineString","coordinates":[[11.276826,51.330452],[11.280518,51.335513]]},"properties":{"name":"Arterner Straße","klasse":"Hauptstraße","breite_m":16.0,"laenge_m":619,"richtung":"radial","stroke":"#7c2d12","stroke-width":5},"links":[{"href":"http://localhost:8080/collections/strassen/items/strassen-6","rel":"self","type":"application/geo+json"}]},{"type":"Feature","id":"strassen-7","geometry":{"type":"LineString","coordinates":[[11.292315,51.325686],[11.295598,51.32423],[11.300438,51.322161],[11.300777,51.322125],[11.301811,51.322131],[11.302834,51.322055],[11.303844,51.321933],[11.304055,51.321877],[11.304502,51.321813],[11.304709,51.321751],[11.305042,51.321699],[11.305339,51.321589],[11.305967,51.321416],[11.308546,51.320335],[11.309124,51.320101],[11.309235,51.320081],[11.310142,51.320003],[11.312555,51.320045],[11.314624,51.320053],[11.315516,51.319925],[11.316269,51.319758],[11.317188,51.319469],[11.318231,51.319022],[11.318544,51.318933],[11.31931,51.318614],[11.319723,51.318491],[11.319948,51.318464],[11.320377,51.318364],[11.320935,51.318286],[11.322851,51.318078],[11.323063,51.318024],[11.323405,51.317997],[11.323618,51.317944],[11.323844,51.31792],[11.325359,51.3176],[11.326314,51.317361],[11.326619,51.317261],[11.326953,51.31721],[11.327254,51.317106],[11.327588,51.317055],[11.328111,51.31691],[11.328338,51.316888],[11.328652,51.3168],[11.329101,51.316744],[11.329313,51.316688],[11.329763,51.316636],[11.330315,51.31654],[11.330543,51.316525],[11.330865,51.31646]]},"properties":{"name":"Nausitzer Straße","klasse":"Hauptstraße","breite_m":16.0,"laenge_m":2945,"richtung":"radial","stroke":"#7c2d12","stroke-width":5},"links":[{"href":"http://localhost:8080/collections/strassen/items/strassen-7","rel":"self","type":"application/geo+json"}]},{"type":"Feature","id":"strassen-8","geometry":{"type":"LineString","coordinates":[[11.255725,51.313431],[11.253721,51.311085],[11.252251,51.309246]]},"properties":{"name":"Schmückestraße","klasse":"Hauptstraße","breite_m":16.0,"laenge_m":525,"richtung":"radial","stroke":"#7c2d12","stroke-width":5},"links":[{"href":"http://localhost:8080/collections/strassen/items/strassen-8","rel":"self","type":"application/geo+json"}]},{"type":"Feature","id":"strassen-9","geometry":{"type":"LineString","coordinates":[[11.296155,51.306769],[11.294875,51.308344],[11.293933,51.309414],[11.289148,51.314327],[11.287818,51.315587],[11.285625,51.317523],[11.283676,51.319303],[11.282857,51.319997],[11.282195,51.320495],[11.281566,51.320914],[11.2809,51.321311],[11.279018,51.322367],[11.278454,51.322726],[11.278,51.323051],[11.277508,51.323449],[11.277055,51.323865],[11.275645,51.325348],[11.275082,51.325891],[11.274319,51.326522],[11.27348,51.327113],[11.271761,51.328173],[11.268477,51.330082],[11.266808,51.330964],[11.264438,51.332117]]},"properties":{"name":"Unstrutstraße","klasse":"Hauptstraße","breite_m":16.0,"laenge_m":3613,"richtung":"tangential","stroke":"#7c2d12","stroke-width":5},"links":[{"href":"http://localhost:8080/collections/strassen/items/strassen-9","rel":"self","type":"application/geo+json"}]},{"type":"Feature","id":"strassen-10","geometry":{"type":"LineString","coordinates":[[11.310515,51.301028],[11.30858,51.302664],[11.307932,51.303258],[11.307315,51.303865],[11.306611,51.304607],[11.304679,51.306732],[11.301879,51.309622],[11.299354,51.312364],[11.296997,51.31475],[11.296239,51.315555],[11.295636,51.31625],[11.295071,51.316958],[11.293041,51.319698],[11.291069,51.322216],[11.289335,51.324487],[11.288523,51.325438],[11.288106,51.325869],[11.28766,51.326288],[11.286752,51.32703],[11.285678,51.327779],[11.283797,51.328942],[11.279702,51.331361],[11.279077,51.331783],[11.278056,51.332561],[11.277571,51.332868],[11.277119,51.333089],[11.276521,51.333304],[11.275993,51.333446],[11.274592,51.333771],[11.273654,51.334064]]},"properties":{"name":"Donndorfer Straße","klasse":"Hauptstraße","breite_m":16.0,"laenge_m":4555,"richtung":"tangential","stroke":"#7c2d12","stroke-width":5},"links":[{"href":"http://localhost:8080/collections/strassen/items/strassen-10","rel":"self","type":"application/geo+json"}]},{"type":"Feature","id":"strassen-11","geometry":{"type":"LineString","coordinates":[[11.320909,51.300929],[11.319203,51.302481],[11.317995,51.30362],[11.316957,51.304655],[11.315969,51.30571],[11.31291,51.309171],[11.309113,51.313279],[11.306628,51.316035],[11.305015,51.317942],[11.302733,51.320846],[11.301736,51.322061],[11.300454,51.323507],[11.298868,51.325176],[11.297711,51.326335],[11.296575,51.327417],[11.295396,51.328481],[11.293784,51.329881],[11.292078,51.331328],[11.290888,51.332297],[11.289797,51.333133],[11.288644,51.333952]]},"properties":{"name":"Kalbsriether Straße","klasse":"Hauptstraße","breite_m":16.0,"laenge_m":4315,"richtung":"tangential","stroke":"#7c2d12","stroke-width":5},"links":[{"href":"http://localhost:8080/collections/strassen/items/strassen-11","rel":"self","type":"application/geo+json"}]},{"type":"Feature","id":"strassen-12","geometry":{"type":"LineString","coordinates":[[11.272419,51.312639],[11.27067,51.314109],[11.269611,51.31496],[11.268659,51.31568],[11.26656,51.317207],[11.265616,51.317932],[11.264781,51.318618],[11.262745,51.320359],[11.261376,51.321424],[11.25854,51.323406],[11.256142,51.325151],[11.255065,51.3259],[11.253612,51.326821],[11.251044,51.328331]]},"properties":{"name":"Nebelring","klasse":"Hauptstraße","breite_m":16.0,"laenge_m":2297,"richtung":"tangential","stroke":"#7c2d12","stroke-width":5},"links":[{"href":"http://localhost:8080/collections/strassen/items/strassen-12","rel":"self","type":"application/geo+json"}]},{"type":"Feature","id":"strassen-13","geometry":{"type":"LineString","coordinates":[[11.254523,51.312023],[11.260328,51.310052],[11.270713,51.315169],[11.272178,51.315865],[11.27505,51.317185],[11.276588,51.317939],[11.277553,51.31845],[11.278578,51.319028],[11.279743,51.319722],[11.2822,51.321236],[11.282793,51.321576],[11.283328,51.321849],[11.283994,51.32213],[11.284807,51.322399],[11.289026,51.323543],[11.288618,51.325319]]},"properties":{"name":"Marktstraße","klasse":"Hauptstraße","breite_m":16.0,"laenge_m":3171,"richtung":"radial","stroke":"#7c2d12","stroke-width":5},"links":[{"href":"http://localhost:8080/collections/strassen/items/strassen-13","rel":"self","type":"application/geo+json"}]},{"type":"Feature","id":"strassen-14","geometry":{"type":"LineString","coordinates":[[11.25677,51.309686],[11.254052,51.312031],[11.253002,51.312886],[11.251851,51.313784],[11.249927,51.315214],[11.246526,51.317653],[11.242736,51.320407]]},"properties":{"name":"Holunderchaussee","klasse":"Hauptstraße","breite_m":16.0,"laenge_m":1543,"richtung":"tangential","stroke":"#7c2d12","stroke-width":5},"links":[{"href":"http://localhost:8080/collections/strassen/items/strassen-14","rel":"self","type":"application/geo+json"}]},{"type":"Feature","id":"strassen-15","geometry":{"type":"LineString","coordinates":[[11.266145,51.318569],[11.263574,51.321118],[11.267206,51.322762],[11.271028,51.324607],[11.27435,51.326151],[11.275341,51.326642],[11.275516,51.326736],[11.276497,51.327927]]},"properties":{"name":"Heideallee","klasse":"Hauptstraße","breite_m":16.0,"laenge_m":1524,"richtung":"radial","stroke":"#7c2d12","stroke-width":5},"links":[{"href":"http://localhost:8080/collections/strassen/items/strassen-15","rel":"self","type":"application/geo+json"}]},{"type":"Feature","id":"strassen-16","geometry":{"type":"LineString","coordinates":[[11.313359,51.300846],[11.321212,51.304071],[11.322881,51.304707],[11.326062,51.305862],[11.327592,51.306451]]},"properties":{"name":"Zimmerstraße","klasse":"Hauptstraße","breite_m":16.0,"laenge_m":1171,"richtung":"radial","stroke":"#7c2d12","stroke-width":5},"links":[{"href":"http://localhost:8080/collections/strassen/items/strassen-16","rel":"self","type":"application/geo+json"}]},{"type":"Feature","id":"strassen-17","geometry":{"type":"LineString","coordinates":[[11.282488,51.313478],[11.281164,51.314678],[11.2798,51.315836],[11.278521,51.316853],[11.275879,51.318846],[11.274587,51.319857],[11.27327,51.320946],[11.270494,51.323329],[11.269011,51.32452],[11.267742,51.32545],[11.26641,51.326344],[11.264781,51.327359],[11.262697,51.328597],[11.266162,51.331278]]},"properties":{"name":"Ritterchaussee","klasse":"Hauptstraße","breite_m":16.0,"laenge_m":2562,"richtung":"tangential","stroke":"#7c2d12","stroke-width":5},"links":[{"href":"http://localhost:8080/collections/strassen/items/strassen-17","rel":"self","type":"application/geo+json"}]},{"type":"Feature","id":"strassen-18","geometry":{"type":"LineString","coordinates":[[11.283979,51.324794],[11.28342,51.326553],[11.287058,51.328751],[11.288922,51.32982],[11.289885,51.330333],[11.29087,51.330829],[11.293543,51.332088]]},"properties":{"name":"Eichenring","klasse":"Hauptstraße","breite_m":16.0,"laenge_m":1136,"richtung":"radial","stroke":"#7c2d12","stroke-width":5},"links":[{"href":"http://localhost:8080/collections/strassen/items/strassen-18","rel":"self","type":"application/geo+json"}]},{"type":"Feature","id":"strassen-19","geometry":{"type":"LineString","coordinates":[[11.275489,51.317401],[11.27858,51.314798],[11.281159,51.316003],[11.283023,51.316845],[11.285952,51.318115],[11.288058,51.31899],[11.289429,51.319518],[11.290831,51.320012],[11.29216,51.32044],[11.294333,51.321097],[11.296981,51.323639]]},"properties":{"name":"Torallee","klasse":"Hauptstraße","breite_m":16.0,"laenge_m":2002,"richtung":"radial","stroke":"#7c2d12","stroke-width":5},"links":[{"href":"http://localhost:8080/collections/strassen/items/strassen-19","rel":"self","type":"application/geo+json"}]},{"type":"Feature","id":"strassen-20","geometry":{"type":"LineString","coordinates":[[11.330511,51.308863],[11.328947,51.310302],[11.326392,51.312519],[11.325753,51.313116],[11.325147,51.313727],[11.324353,51.314603],[11.322368,51.316956],[11.320098,51.319539],[11.318168,51.321859]]},"properties":{"name":"Goethestraße","klasse":"Hauptstraße","breite_m":16.0,"laenge_m":1685,"richtung":"tangential","stroke":"#7c2d12","stroke-width":5},"links":[{"href":"http://localhost:8080/collections/strassen/items/strassen-20","rel":"self","type":"application/geo+json"}]},{"type":"Feature","id":"strassen-21","geometry":{"type":"LineString","coordinates":[[11.243106,51.321509],[11.246367,51.323357],[11.247601,51.324111],[11.248883,51.324936],[11.252743,51.327502],[11.254139,51.328457],[11.255483,51.329442],[11.256809,51.330507]]},"properties":{"name":"Gartenchaussee","klasse":"Hauptstraße","breite_m":16.0,"laenge_m":1384,"richtung":"radial","stroke":"#7c2d12","stroke-width":5},"links":[{"href":"http://localhost:8080/collections/strassen/items/strassen-21","rel":"self","type":"application/geo+json"}]},{"type":"Feature","id":"strassen-22","geometry":{"type":"LineString","coordinates":[[11.301315,51.304173],[11.302649,51.304703],[11.30403,51.30522],[11.307627,51.3065],[11.311791,51.308029],[11.316794,51.3098],[11.325527,51.313134],[11.328111,51.31691]]},"properties":{"name":"Müllerallee","klasse":"Hauptstraße","breite_m":16.0,"laenge_m":2415,"richtung":"radial","stroke":"#7c2d12","stroke-width":5},"links":[{"href":"http://localhost:8080/collections/strassen/items/strassen-22","rel":"self","type":"application/geo+json"}]},{"type":"Feature","id":"strassen-23","geometry":{"type":"LineString","coordinates":[[11.293279,51.319375],[11.291433,51.318812],[11.289364,51.321218],[11.288665,51.322125],[11.287063,51.324355],[11.286529,51.324991],[11.28599,51.325544],[11.28532,51.326128],[11.28458,51.326678],[11.283476,51.326377]]},"properties":{"name":"Königsweg","klasse":"Nebenstraße","breite_m":10.0,"laenge_m":1227,"richtung":"tangential","stroke":"#c2410c","stroke-width":3.2},"links":[{"href":"http://localhost:8080/collections/strassen/items/strassen-23","rel":"self","type":"application/geo+json"}]},{"type":"Feature","id":"strassen-24","geometry":{"type":"LineString","coordinates":[[11.287348,51.316002],[11.285175,51.314986],[11.282533,51.31734],[11.28178,51.317975],[11.281138,51.318483],[11.280543,51.318921],[11.279846,51.319399],[11.277118,51.32115],[11.276509,51.321581],[11.275928,51.322027],[11.274911,51.322898],[11.272742,51.324932],[11.27206,51.32551],[11.271412,51.326015],[11.270266,51.326821],[11.268973,51.327639],[11.267543,51.328472],[11.26581,51.329417],[11.267434,51.330633]]},"properties":{"name":"Lindenallee","klasse":"Nebenstraße","breite_m":10.0,"laenge_m":2469,"richtung":"tangential","stroke":"#c2410c","stroke-width":3.2},"links":[{"href":"http://localhost:8080/collections/strassen/items/strassen-24","rel":"self","type":"application/geo+json"}]},{"type":"Feature","id":"strassen-25","geometry":{"type":"LineString","coordinates":[[11.289148,51.314327],[11.291874,51.315338],[11.29046,51.316903],[11.28782,51.319517],[11.287178,51.320198],[11.286573,51.320893],[11.285565,51.322185],[11.284248,51.324101],[11.283979,51.324794]]},"properties":{"name":"Schusterring","klasse":"Nebenstraße","breite_m":10.0,"laenge_m":1412,"richtung":"tangential","stroke":"#c2410c","stroke-width":3.2},"links":[{"href":"http://localhost:8080/collections/strassen/items/strassen-25","rel":"self","type":"application/geo+json"}]},{"type":"Feature","id":"strassen-26","geometry":{"type":"LineString","coordinates":[[11.267105,51.31895],[11.266287,51.319792],[11.271153,51.322086],[11.273596,51.323162],[11.275038,51.323754],[11.276406,51.324284],[11.277605,51.324712],[11.279137,51.325207],[11.279617,51.325403],[11.280011,51.325664],[11.281008,51.326544],[11.281782,51.32717],[11.282602,51.327772],[11.283612,51.328461],[11.285536,51.329697],[11.287419,51.330859],[11.288853,51.331689],[11.290253,51.332435],[11.291761,51.331249]]},"properties":{"name":"Ulmenallee","klasse":"Nebenstraße","breite_m":10.0,"laenge_m":2478,"richtung":"radial","stroke":"#c2410c","stroke-width":3.2},"links":[{"href":"http://localhost:8080/collections/strassen/items/strassen-26","rel":"self","type":"application/geo+json"}]},{"type":"Feature","id":"strassen-27","geometry":{"type":"LineString","coordinates":[[11.292315,51.325686],[11.291345,51.32626],[11.290427,51.327172],[11.289562,51.327935],[11.288625,51.328663],[11.287467,51.329462],[11.284567,51.331309],[11.281944,51.333023],[11.281046,51.33358],[11.280368,51.333968],[11.279663,51.334337],[11.278929,51.334684],[11.278169,51.335008]]},"properties":{"name":"Bärenweg","klasse":"Nebenstraße","breite_m":10.0,"laenge_m":1437,"richtung":"tangential","stroke":"#c2410c","stroke-width":3.2},"links":[{"href":"http://localhost:8080/collections/strassen/items/strassen-27","rel":"self","type":"application/geo+json"}]},{"type":"Feature","id":"strassen-28","geometry":{"type":"LineString","coordinates":[[11.270922,51.315269],[11.269361,51.316443],[11.271409,51.317489],[11.274516,51.318972],[11.275686,51.319553],[11.277075,51.320308],[11.278396,51.321108],[11.279267,51.321681],[11.280032,51.322218],[11.28177,51.323558],[11.28203,51.323699],[11.282429,51.323842],[11.282091,51.324566]]},"properties":{"name":"Salzring","klasse":"Nebenstraße","breite_m":10.0,"laenge_m":1486,"richtung":"radial","stroke":"#c2410c","stroke-width":3.2},"links":[{"href":"http://localhost:8080/collections/strassen/items/strassen-28","rel":"self","type":"application/geo+json"}]},{"type":"Feature","id":"strassen-29","geometry":{"type":"LineString","coordinates":[[11.305042,51.321699],[11.304304,51.322251],[11.302853,51.323885],[11.299173,51.327787],[11.298019,51.328947],[11.296854,51.330017],[11.294751,51.329041]]},"properties":{"name":"Böttcherstraße","klasse":"Nebenstraße","breite_m":10.0,"laenge_m":1270,"richtung":"tangential","stroke":"#c2410c","stroke-width":3.2},"links":[{"href":"http://localhost:8080/collections/strassen/items/strassen-29","rel":"self","type":"application/geo+json"}]},{"type":"Feature","id":"strassen-30","geometry":{"type":"LineString","coordinates":[[11.264255,51.321426],[11.262457,51.323015],[11.265391,51.32452],[11.267127,51.325462],[11.26948,51.326836],[11.271519,51.328103],[11.272756,51.328954],[11.273903,51.329853],[11.27502,51.330856],[11.275979,51.331838],[11.276576,51.331345]]},"properties":{"name":"Bachstraße","klasse":"Nebenstraße","breite_m":10.0,"laenge_m":1653,"richtung":"radial","stroke":"#c2410c","stroke-width":3.2},"links":[{"href":"http://localhost:8080/collections/strassen/items/strassen-30","rel":"self","type":"application/geo+json"}]},{"type":"Feature","id":"strassen-31","geometry":{"type":"LineString","coordinates":[[11.277767,51.315483],[11.274982,51.314213],[11.27208,51.316716],[11.270949,51.317624],[11.268762,51.319291],[11.267834,51.320024],[11.266871,51.320831],[11.264994,51.322466],[11.264163,51.323155],[11.262704,51.324266],[11.260789,51.325607],[11.257802,51.323943]]},"properties":{"name":"Finkenstraße","klasse":"Nebenstraße","breite_m":10.0,"laenge_m":2126,"richtung":"tangential","stroke":"#c2410c","stroke-width":3.2},"links":[{"href":"http://localhost:8080/collections/strassen/items/strassen-31","rel":"self","type":"application/geo+json"}]},{"type":"Feature","id":"strassen-32","geometry":{"type":"LineString","coordinates":[[11.26977,51.316652],[11.26834,51.31763],[11.270904,51.318963],[11.275012,51.32093],[11.27688,51.321886],[11.276211,51.322523]]},"properties":{"name":"Schneiderstraße","klasse":"Nebenstraße","breite_m":10.0,"laenge_m":992,"richtung":"radial","stroke":"#c2410c","stroke-width":3.2},"links":[{"href":"http://localhost:8080/collections/strassen/items/strassen-32","rel":"self","type":"application/geo+json"}]},{"type":"Feature","id":"strassen-33","geometry":{"type":"LineString","coordinates":[[11.276873,51.329358],[11.275732,51.329521],[11.274638,51.329918],[11.273798,51.330295],[11.273273,51.330574],[11.272777,51.330874],[11.27064,51.33238],[11.270074,51.332737],[11.269392,51.333123]]},"properties":{"name":"Waldweg","klasse":"Nebenstraße","breite_m":10.0,"laenge_m":681,"richtung":"tangential","stroke":"#c2410c","stroke-width":3.2},"links":[{"href":"http://localhost:8080/collections/strassen/items/strassen-33","rel":"self","type":"application/geo+json"}]},{"type":"Feature","id":"strassen-34","geometry":{"type":"LineString","coordinates":[[11.294333,51.321097],[11.296488,51.319657],[11.298347,51.320226],[11.301931,51.32137],[11.302067,51.322112]]},"properties":{"name":"Hügelring","klasse":"Nebenstraße","breite_m":10.0,"laenge_m":727,"richtung":"radial","stroke":"#c2410c","stroke-width":3.2},"links":[{"href":"http://localhost:8080/collections/strassen/items/strassen-34","rel":"self","type":"application/geo+json"}]},{"type":"Feature","id":"strassen-35","geometry":{"type":"LineString","coordinates":[[11.275489,51.317401],[11.274117,51.317685],[11.267148,51.323403],[11.266221,51.324137],[11.265263,51.324854],[11.266981,51.325961]]},"properties":{"name":"Richterweg","klasse":"Nebenstraße","breite_m":10.0,"laenge_m":1280,"richtung":"tangential","stroke":"#c2410c","stroke-width":3.2},"links":[{"href":"http://localhost:8080/collections/strassen/items/strassen-35","rel":"self","type":"application/geo+json"}]},{"type":"Feature","id":"strassen-36","geometry":{"type":"LineString","coordinates":[[11.273062,51.316271],[11.274927,51.314697],[11.27724,51.315764],[11.28148,51.317858],[11.283511,51.318801],[11.284746,51.319327],[11.285912,51.319788],[11.287203,51.32026],[11.288616,51.320742],[11.292208,51.321876],[11.293126,51.320732]]},"properties":{"name":"Schulzenstraße","klasse":"Nebenstraße","breite_m":10.0,"laenge_m":1808,"richtung":"radial","stroke":"#c2410c","stroke-width":3.2},"links":[{"href":"http://localhost:8080/collections/strassen/items/strassen-36","rel":"self","type":"application/geo+json"}]},{"type":"Feature","id":"strassen-37","geometry":{"type":"LineString","coordinates":[[11.304254,51.31891],[11.301894,51.31822],[11.30022,51.320349],[11.29889,51.321943],[11.299516,51.322555]]},"properties":{"name":"Grafenstraße","klasse":"Nebenstraße","breite_m":10.0,"laenge_m":726,"richtung":"tangential","stroke":"#c2410c","stroke-width":3.2},"links":[{"href":"http://localhost:8080/collections/strassen/items/strassen-37","rel":"self","type":"application/geo+json"}]},{"type":"Feature","id":"strassen-38","geometry":{"type":"LineString","coordinates":[[11.29939,51.326311],[11.299268,51.327056],[11.300559,51.327527],[11.302868,51.328333]]},"properties":{"name":"Grabenallee","klasse":"Nebenstraße","breite_m":10.0,"laenge_m":371,"richtung":"radial","stroke":"#c2410c","stroke-width":3.2},"links":[{"href":"http://localhost:8080/collections/strassen/items/strassen-38","rel":"self","type":"application/geo+json"}]},{"type":"Feature","id":"strassen-39","geometry":{"type":"LineString","coordinates":[[11.288994,51.318355],[11.287674,51.317768],[11.286265,51.319082],[11.284136,51.321217],[11.283281,51.321983],[11.282702,51.32243],[11.282149,51.322796],[11.281634,51.323082],[11.280547,51.323614],[11.28021,51.32381],[11.279981,51.32397],[11.279589,51.324325],[11.278746,51.325347],[11.278191,51.325893],[11.277772,51.326236],[11.277322,51.326562],[11.276764,51.326925],[11.276179,51.327271],[11.276751,51.327846]]},"properties":{"name":"Windstraße","klasse":"Nebenstraße","breite_m":10.0,"laenge_m":1524,"richtung":"tangential","stroke":"#c2410c","stroke-width":3.2},"links":[{"href":"http://localhost:8080/collections/strassen/items/strassen-39","rel":"self","type":"application/geo+json"}]},{"type":"Feature","id":"strassen-40","geometry":{"type":"LineString","coordinates":[[11.264255,51.321426],[11.265702,51.321009],[11.267475,51.321807],[11.270692,51.323319],[11.272276,51.324035],[11.274184,51.324837],[11.276912,51.325906],[11.277661,51.32624],[11.27809,51.326479],[11.278547,51.326801],[11.280527,51.328567],[11.281162,51.329078],[11.281835,51.32957],[11.283271,51.330501],[11.287642,51.333156],[11.289253,51.331902]]},"properties":{"name":"Rosenring","klasse":"Nebenstraße","breite_m":10.0,"laenge_m":2346,"richtung":"radial","stroke":"#c2410c","stroke-width":3.2},"links":[{"href":"http://localhost:8080/collections/strassen/items/strassen-40","rel":"self","type":"application/geo+json"}]},{"type":"Feature","id":"strassen-41","geometry":{"type":"LineString","coordinates":[[11.282364,51.329788],[11.281519,51.329239],[11.280085,51.329959],[11.279425,51.330248],[11.278837,51.330473],[11.278327,51.330638],[11.277903,51.33075],[11.27648,51.331036],[11.276051,51.331138],[11.275538,51.331301],[11.275159,51.331462],[11.274813,51.331652],[11.27443,51.331919],[11.273448,51.332806],[11.272934,51.333193],[11.273654,51.334064]]},"properties":{"name":"Fliederring","klasse":"Nebenstraße","breite_m":10.0,"laenge_m":954,"richtung":"tangential","stroke":"#c2410c","stroke-width":3.2},"links":[{"href":"http://localhost:8080/collections/strassen/items/strassen-41","rel":"self","type":"application/geo+json"}]},{"type":"Feature","id":"strassen-42","geometry":{"type":"LineString","coordinates":[[11.287242,51.32517],[11.28705,51.325892],[11.293126,51.328487],[11.297615,51.330494]]},"properties":{"name":"Maurerweg","klasse":"Nebenstraße","breite_m":10.0,"laenge_m":977,"richtung":"radial","stroke":"#c2410c","stroke-width":3.2},"links":[{"href":"http://localhost:8080/collections/strassen/items/strassen-42","rel":"self","type":"application/geo+json"}]},{"type":"Feature","id":"strassen-43","geometry":{"type":"LineString","coordinates":[[11.296981,51.323639],[11.298266,51.323768],[11.304185,51.325984],[11.303442,51.3265]]},"properties":{"name":"Fürstenstraße","klasse":"Nebenstraße","breite_m":10.0,"laenge_m":648,"richtung":"radial","stroke":"#c2410c","stroke-width":3.2},"links":[{"href":"http://localhost:8080/collections/strassen/items/strassen-43","rel":"self","type":"application/geo+json"}]},{"type":"Feature","id":"strassen-44","geometry":{"type":"LineString","coordinates":[[11.282557,51.316634],[11.283992,51.315293],[11.288122,51.317119],[11.289651,51.317759],[11.291335,51.31838],[11.293288,51.318991],[11.29216,51.32044]]},"properties":{"name":"Kupferweg","klasse":"Nebenstraße","breite_m":10.0,"laenge_m":1127,"richtung":"radial","stroke":"#c2410c","stroke-width":3.2},"links":[{"href":"http://localhost:8080/collections/strassen/items/strassen-44","rel":"self","type":"application/geo+json"}]},{"type":"Feature","id":"strassen-45","geometry":{"type":"LineString","coordinates":[[11.276497,51.327927],[11.277636,51.328174],[11.279232,51.329922],[11.279606,51.330285],[11.280021,51.330629],[11.280881,51.331208],[11.283056,51.332491],[11.284289,51.333245],[11.286053,51.332191]]},"properties":{"name":"Herzogweg","klasse":"Nebenstraße","breite_m":10.0,"laenge_m":990,"richtung":"radial","stroke":"#c2410c","stroke-width":3.2},"links":[{"href":"http://localhost:8080/collections/strassen/items/strassen-45","rel":"self","type":"application/geo+json"}]},{"type":"Feature","id":"strassen-46","geometry":{"type":"LineString","coordinates":[[11.294725,51.320835],[11.29569,51.321346],[11.297122,51.321806],[11.298638,51.32232],[11.30354,51.324056],[11.302459,51.325338]]},"properties":{"name":"Schmiedeweg","klasse":"Nebenstraße","breite_m":10.0,"laenge_m":873,"richtung":"radial","stroke":"#c2410c","stroke-width":3.2},"links":[{"href":"http://localhost:8080/collections/strassen/items/strassen-46","rel":"self","type":"application/geo+json"}]},{"type":"Feature","id":"strassen-47","geometry":{"type":"LineString","coordinates":[[11.265122,51.330474],[11.266881,51.329594],[11.268375,51.330687],[11.269459,51.331431],[11.270685,51.332189],[11.272745,51.333337],[11.27313,51.333603],[11.273524,51.333957],[11.275653,51.334119]]},"properties":{"name":"Regenring","klasse":"Nebenstraße","breite_m":10.0,"laenge_m":978,"richtung":"radial","stroke":"#c2410c","stroke-width":3.2},"links":[{"href":"http://localhost:8080/collections/strassen/items/strassen-47","rel":"self","type":"application/geo+json"}]},{"type":"Feature","id":"strassen-48","geometry":{"type":"LineString","coordinates":[[11.294833,51.325925],[11.294525,51.327091],[11.298048,51.328581],[11.299121,51.329],[11.300315,51.329432]]},"properties":{"name":"Brunnenring","klasse":"Nebenstraße","breite_m":10.0,"laenge_m":611,"richtung":"radial","stroke":"#c2410c","stroke-width":3.2},"links":[{"href":"http://localhost:8080/collections/strassen/items/strassen-48","rel":"self","type":"application/geo+json"}]},{"type":"Feature","id":"strassen-49","geometry":{"type":"LineString","coordinates":[[11.283476,51.326377],[11.282576,51.326927],[11.28134,51.327571],[11.279953,51.328212],[11.278696,51.328717],[11.27768,51.328295]]},"properties":{"name":"Hirschstraße","klasse":"Nebenstraße","breite_m":10.0,"laenge_m":508,"richtung":"tangential","stroke":"#c2410c","stroke-width":3.2},"links":[{"href":"http://localhost:8080/collections/strassen/items/strassen-49","rel":"self","type":"application/geo+json"}]},{"type":"Feature","id":"strassen-50","geometry":{"type":"LineString","coordinates":[[11.28344,51.324729],[11.283239,51.325471],[11.285199,51.326471],[11.289143,51.328565],[11.290402,51.329192],[11.29187,51.329886],[11.290673,51.33073]]},"properties":{"name":"Kantorweg","klasse":"Nebenstraße","breite_m":10.0,"laenge_m":985,"richtung":"radial","stroke":"#c2410c","stroke-width":3.2},"links":[{"href":"http://localhost:8080/collections/strassen/items/strassen-50","rel":"self","type":"application/geo+json"}]},{"type":"Feature","id":"strassen-51","geometry":{"type":"LineString","coordinates":[[11.26008,51.317782],[11.261572,51.318572],[11.262932,51.319235],[11.267139,51.321118],[11.270543,51.322713],[11.271938,51.323347],[11.273169,51.323877],[11.274421,51.324387],[11.275795,51.324912],[11.277889,51.325663],[11.278276,51.325819],[11.27864,51.325994],[11.278969,51.326195],[11.279264,51.326416],[11.280522,51.327532],[11.281214,51.328106],[11.281871,51.328606],[11.282557,51.329091],[11.283992,51.330023],[11.286859,51.331789],[11.287774,51.332335],[11.288358,51.332599]]},"properties":{"name":"Turmsteig","klasse":"Wohnstraße","breite_m":6.0,"laenge_m":2586,"richtung":"radial","stroke":"#57534e","stroke-width":1.6},"links":[{"href":"http://localhost:8080/collections/strassen/items/strassen-51","rel":"self","type":"application/geo+json"}]},{"type":"Feature","id":"strassen-52","geometry":{"type":"LineString","coordinates":[[11.277803,51.313515],[11.272778,51.317809],[11.268885,51.320925],[11.265568,51.323683],[11.264553,51.324464],[11.263498,51.325225],[11.262179,51.326127],[11.26075,51.327063]]},"properties":{"name":"Gerberweg","klasse":"Wohnstraße","breite_m":6.0,"laenge_m":1920,"richtung":"tangential","stroke":"#57534e","stroke-width":1.6},"links":[{"href":"http://localhost:8080/collections/strassen/items/strassen-52","rel":"self","type":"application/geo+json"}]},{"type":"Feature","id":"strassen-53","geometry":{"type":"LineString","coordinates":[[11.262289,51.315418],[11.270268,51.319539],[11.271993,51.320377],[11.274579,51.321575],[11.274297,51.321776]]},"properties":{"name":"Bischofsteig","klasse":"Wohnstraße","breite_m":6.0,"laenge_m":1126,"richtung":"radial","stroke":"#57534e","stroke-width":1.6},"links":[{"href":"http://localhost:8080/collections/strassen/items/strassen-53","rel":"self","type":"application/geo+json"}]},{"type":"Feature","id":"strassen-54","geometry":{"type":"LineString","coordinates":[[11.267101,51.313389],[11.266266,51.314086],[11.270596,51.316339],[11.271954,51.317004],[11.275165,51.318521],[11.27606,51.318972],[11.276931,51.319441],[11.278109,51.320127],[11.279237,51.320845],[11.280397,51.321643],[11.281887,51.322738],[11.282369,51.323047],[11.282735,51.32322],[11.283238,51.323394],[11.285764,51.324087],[11.287008,51.324461],[11.288335,51.324891],[11.2887,51.324964]]},"properties":{"name":"Talsteig","klasse":"Wohnstraße","breite_m":6.0,"laenge_m":2091,"richtung":"radial","stroke":"#57534e","stroke-width":1.6},"links":[{"href":"http://localhost:8080/collections/strassen/items/strassen-54","rel":"self","type":"application/geo+json"}]},{"type":"Feature","id":"strassen-55","geometry":{"type":"LineString","coordinates":[[11.267105,51.31895],[11.266876,51.319236],[11.270141,51.320827],[11.271701,51.321564],[11.274139,51.322645],[11.277001,51.323849],[11.278374,51.324374],[11.280008,51.324901],[11.28029,51.325025],[11.280515,51.325188],[11.281531,51.326059],[11.282498,51.326772],[11.283992,51.327768],[11.286337,51.32925],[11.287906,51.330201],[11.289271,51.330972],[11.290687,51.331706],[11.292327,51.332496]]},"properties":{"name":"Schulpfad","klasse":"Wohnstraße","breite_m":6.0,"laenge_m":2355,"richtung":"radial","stroke":"#57534e","stroke-width":1.6},"links":[{"href":"http://localhost:8080/collections/strassen/items/strassen-55","rel":"self","type":"application/geo+json"}]},{"type":"Feature","id":"strassen-56","geometry":{"type":"LineString","coordinates":[[11.288618,51.325319],[11.288591,51.325542],[11.291057,51.326465],[11.292908,51.32719],[11.294437,51.327829],[11.297551,51.329185],[11.299295,51.329882]]},"properties":{"name":"Mondweg","klasse":"Wohnstraße","breite_m":6.0,"laenge_m":913,"richtung":"radial","stroke":"#57534e","stroke-width":1.6},"links":[{"href":"http://localhost:8080/collections/strassen/items/strassen-56","rel":"self","type":"application/geo+json"}]},{"type":"Feature","id":"strassen-57","geometry":{"type":"LineString","coordinates":[[11.300698,51.319741],[11.300216,51.319604],[11.29859,51.321588],[11.297143,51.323224],[11.297442,51.323442]]},"properties":{"name":"Töpferstraße","klasse":"Wohnstraße","breite_m":6.0,"laenge_m":525,"richtung":"tangential","stroke":"#57534e","stroke-width":1.6},"links":[{"href":"http://localhost:8080/collections/strassen/items/strassen-57","rel":"self","type":"application/geo+json"}]},{"type":"Feature","id":"strassen-58","geometry":{"type":"LineString","coordinates":[[11.283918,51.326497],[11.283785,51.326707],[11.282706,51.327353],[11.281299,51.328095],[11.279916,51.328739],[11.279047,51.329089],[11.278243,51.329369],[11.277518,51.329587],[11.276045,51.329993],[11.275326,51.330219],[11.274735,51.330441],[11.274177,51.330694],[11.273741,51.330928],[11.273253,51.331233],[11.272799,51.331558],[11.271426,51.33262],[11.270879,51.332989],[11.270296,51.333336]]},"properties":{"name":"Mühlenweg","klasse":"Wohnstraße","breite_m":6.0,"laenge_m":1233,"richtung":"tangential","stroke":"#57534e","stroke-width":1.6},"links":[{"href":"http://localhost:8080/collections/strassen/items/strassen-58","rel":"self","type":"application/geo+json"}]},{"type":"Feature","id":"strassen-59","geometry":{"type":"LineString","coordinates":[[11.273957,51.328737],[11.274148,51.32896],[11.273235,51.329397],[11.272448,51.329817],[11.271613,51.330311],[11.269341,51.331737],[11.268483,51.332216],[11.267498,51.332711]]},"properties":{"name":"Habichtweg","klasse":"Wohnstraße","breite_m":6.0,"laenge_m":652,"richtung":"tangential","stroke":"#57534e","stroke-width":1.6},"links":[{"href":"http://localhost:8080/collections/strassen/items/strassen-59","rel":"self","type":"application/geo+json"}]},{"type":"Feature","id":"strassen-60","geometry":{"type":"LineString","coordinates":[[11.296981,51.323639],[11.296843,51.323863],[11.303251,51.326267],[11.303442,51.3265]]},"properties":{"name":"Rübenwinkel","klasse":"Wohnstraße","breite_m":6.0,"laenge_m":576,"richtung":"radial","stroke":"#57534e","stroke-width":1.6},"links":[{"href":"http://localhost:8080/collections/strassen/items/strassen-60","rel":"self","type":"application/geo+json"}]},{"type":"Feature","id":"strassen-61","geometry":{"type":"LineString","coordinates":[[11.293279,51.319375],[11.297195,51.320528],[11.301379,51.321885],[11.301294,51.322128]]},"properties":{"name":"Haferpfad","klasse":"Wohnstraße","breite_m":6.0,"laenge_m":657,"richtung":"radial","stroke":"#57534e","stroke-width":1.6},"links":[{"href":"http://localhost:8080/collections/strassen/items/strassen-61","rel":"self","type":"application/geo+json"}]},{"type":"Feature","id":"strassen-62","geometry":{"type":"LineString","coordinates":[[11.29216,51.32044],[11.291532,51.320298],[11.29029,51.321839],[11.288593,51.324121],[11.287863,51.325018],[11.287637,51.325268],[11.287242,51.32517]]},"properties":{"name":"Feldweg","klasse":"Wohnstraße","breite_m":6.0,"laenge_m":692,"richtung":"tangential","stroke":"#57534e","stroke-width":1.6},"links":[{"href":"http://localhost:8080/collections/strassen/items/strassen-62","rel":"self","type":"application/geo+json"}]},{"type":"Feature","id":"strassen-63","geometry":{"type":"LineString","coordinates":[[11.280811,51.317528],[11.281188,51.317222],[11.283598,51.318327],[11.28599,51.319323],[11.288359,51.320208],[11.290894,51.321054],[11.290668,51.32139]]},"properties":{"name":"Klosterweg","klasse":"Wohnstraße","breite_m":6.0,"laenge_m":883,"richtung":"radial","stroke":"#57534e","stroke-width":1.6},"links":[{"href":"http://localhost:8080/collections/strassen/items/strassen-63","rel":"self","type":"application/geo+json"}]},{"type":"Feature","id":"strassen-64","geometry":{"type":"LineString","coordinates":[[11.276746,51.322014],[11.27709,51.322091],[11.27838,51.322806],[11.279987,51.323732],[11.279812,51.323958]]},"properties":{"name":"Quellweg","klasse":"Wohnstraße","breite_m":6.0,"laenge_m":325,"richtung":"radial","stroke":"#57534e","stroke-width":1.6},"links":[{"href":"http://localhost:8080/collections/strassen/items/strassen-64","rel":"self","type":"application/geo+json"}]},{"type":"Feature","id":"strassen-65","geometry":{"type":"LineString","coordinates":[[11.287505,51.315864],[11.286842,51.315508],[11.283273,51.318686],[11.282659,51.319207],[11.282087,51.319657],[11.281482,51.32009],[11.280845,51.320505],[11.27883,51.321684],[11.278176,51.322088],[11.277556,51.322513],[11.277046,51.322902],[11.276184,51.323666],[11.274855,51.325011],[11.274291,51.325554],[11.273685,51.326078],[11.273108,51.326526],[11.271947,51.327324],[11.270311,51.328334],[11.268455,51.329408],[11.266708,51.330343],[11.267225,51.330743]]},"properties":{"name":"Lessingsteig","klasse":"Wohnstraße","breite_m":6.0,"laenge_m":2294,"richtung":"tangential","stroke":"#57534e","stroke-width":1.6},"links":[{"href":"http://localhost:8080/collections/strassen/items/strassen-65","rel":"self","type":"application/geo+json"}]},{"type":"Feature","id":"strassen-66","geometry":{"type":"LineString","coordinates":[[11.264214,51.314399],[11.270228,51.317634],[11.271753,51.318399],[11.275037,51.319974],[11.276015,51.320475],[11.276881,51.320948],[11.278217,51.321739],[11.279494,51.322567],[11.280482,51.323268],[11.281399,51.324006],[11.281676,51.324133],[11.282405,51.324346],[11.282361,51.324599]]},"properties":{"name":"Zinnwinkel","klasse":"Wohnstraße","breite_m":6.0,"laenge_m":1716,"richtung":"radial","stroke":"#57534e","stroke-width":1.6},"links":[{"href":"http://localhost:8080/collections/strassen/items/strassen-66","rel":"self","type":"application/geo+json"}]},{"type":"Feature","id":"strassen-67","geometry":{"type":"LineString","coordinates":[[11.297321,51.31821],[11.300609,51.319243],[11.304945,51.320573],[11.306473,51.321073],[11.30849,51.321762]]},"properties":{"name":"Sonnenpfad","klasse":"Wohnstraße","breite_m":6.0,"laenge_m":872,"richtung":"radial","stroke":"#57534e","stroke-width":1.6},"links":[{"href":"http://localhost:8080/collections/strassen/items/strassen-67","rel":"self","type":"application/geo+json"}]},{"type":"Feature","id":"strassen-68","geometry":{"type":"LineString","coordinates":[[11.27944,51.3152],[11.278829,51.31559],[11.274839,51.31875],[11.273164,51.320121],[11.26987,51.32289],[11.268533,51.323971],[11.267063,51.325076],[11.265513,51.326139],[11.266206,51.326471]]},"properties":{"name":"Angerweg","klasse":"Wohnstraße","breite_m":6.0,"laenge_m":1617,"richtung":"tangential","stroke":"#57534e","stroke-width":1.6},"links":[{"href":"http://localhost:8080/collections/strassen/items/strassen-68","rel":"self","type":"application/geo+json"}]},{"type":"Feature","id":"strassen-69","geometry":{"type":"LineString","coordinates":[[11.30362,51.319716],[11.304349,51.319956],[11.302478,51.322265],[11.301649,51.32321],[11.300614,51.324331],[11.299196,51.325812],[11.298044,51.326972],[11.297038,51.327935],[11.295923,51.328939],[11.295235,51.328621]]},"properties":{"name":"Wiesensteig","klasse":"Wohnstraße","breite_m":6.0,"laenge_m":1277,"richtung":"tangential","stroke":"#57534e","stroke-width":1.6},"links":[{"href":"http://localhost:8080/collections/strassen/items/strassen-69","rel":"self","type":"application/geo+json"}]},{"type":"Feature","id":"strassen-70","geometry":{"type":"LineString","coordinates":[[11.277546,51.328454],[11.277246,51.328309],[11.274974,51.329155],[11.274302,51.329432],[11.273651,51.329728],[11.272941,51.330094],[11.272269,51.330486],[11.270215,51.331844],[11.269222,51.332443],[11.268698,51.332096]]},"properties":{"name":"Kirchstraße","klasse":"Wohnstraße","breite_m":6.0,"laenge_m":807,"richtung":"tangential","stroke":"#57534e","stroke-width":1.6},"links":[{"href":"http://localhost:8080/collections/strassen/items/strassen-70","rel":"self","type":"application/geo+json"}]},{"type":"Feature","id":"strassen-71","geometry":{"type":"LineString","coordinates":[[11.276298,51.332096],[11.276242,51.332138],[11.276276,51.332206],[11.276616,51.3324],[11.277074,51.332722],[11.278697,51.334027],[11.279327,51.33388]]},"properties":{"name":"Seegasse","klasse":"Wohnstraße","breite_m":6.0,"laenge_m":325,"richtung":"radial","stroke":"#57534e","stroke-width":1.6},"links":[{"href":"http://localhost:8080/collections/strassen/items/strassen-71","rel":"self","type":"application/geo+json"}]},{"type":"Feature","id":"strassen-72","geometry":{"type":"LineString","coordinates":[[11.29996,51.326353],[11.299867,51.326587],[11.303749,51.32799]]},"properties":{"name":"Fuchswinkel","klasse":"Wohnstraße","breite_m":6.0,"laenge_m":339,"richtung":"radial","stroke":"#57534e","stroke-width":1.6},"links":[{"href":"http://localhost:8080/collections/strassen/items/strassen-72","rel":"self","type":"application/geo+json"}]},{"type":"Feature","id":"strassen-73","geometry":{"type":"LineString","coordinates":[[11.275489,51.317401],[11.275128,51.317673],[11.276742,51.318483],[11.278284,51.319346],[11.279841,51.320304],[11.282224,51.321863],[11.282987,51.3223],[11.283551,51.322548],[11.28426,51.322785],[11.287537,51.323662],[11.288583,51.32396],[11.288904,51.324076]]},"properties":{"name":"Drechslerstraße","klasse":"Wohnstraße","breite_m":6.0,"laenge_m":1249,"richtung":"radial","stroke":"#57534e","stroke-width":1.6},"links":[{"href":"http://localhost:8080/collections/strassen/items/strassen-73","rel":"self","type":"application/geo+json"}]},{"type":"Feature","id":"strassen-74","geometry":{"type":"LineString","coordinates":[[11.259477,51.319742],[11.260839,51.320516],[11.26207,51.321164],[11.263248,51.32174],[11.266016,51.323026],[11.267563,51.323773],[11.272203,51.326131],[11.273519,51.326828],[11.274433,51.327374],[11.275191,51.327915],[11.275535,51.328203],[11.275915,51.328562],[11.276582,51.329318],[11.276867,51.329465]]},"properties":{"name":"Webersteig","klasse":"Wohnstraße","breite_m":6.0,"laenge_m":1634,"richtung":"radial","stroke":"#57534e","stroke-width":1.6},"links":[{"href":"http://localhost:8080/collections/strassen/items/strassen-74","rel":"self","type":"application/geo+json"}]},{"type":"Feature","id":"strassen-75","geometry":{"type":"LineString","coordinates":[[11.299286,51.322653],[11.299579,51.32283],[11.298716,51.323764],[11.297765,51.324749],[11.295715,51.326745],[11.293303,51.328936],[11.291262,51.330675],[11.290673,51.33073]]},"properties":{"name":"Bergwinkel","klasse":"Wohnstraße","breite_m":6.0,"laenge_m":1118,"richtung":"tangential","stroke":"#57534e","stroke-width":1.6},"links":[{"href":"http://localhost:8080/collections/strassen/items/strassen-75","rel":"self","type":"application/geo+json"}]},{"type":"Feature","id":"strassen-76","geometry":{"type":"LineString","coordinates":[[11.287505,51.315864],[11.288159,51.31614],[11.286172,51.317903],[11.284129,51.319816],[11.283398,51.320462],[11.282679,51.321023],[11.281973,51.321495],[11.281298,51.321886],[11.279639,51.322775],[11.279146,51.323076],[11.278761,51.323344],[11.278336,51.323683],[11.27795,51.324041],[11.276528,51.325603],[11.276093,51.326026],[11.275686,51.326374],[11.27502,51.326869],[11.274219,51.327385],[11.270668,51.329431],[11.270961,51.329682]]},"properties":{"name":"Kornstraße","klasse":"Wohnstraße","breite_m":6.0,"laenge_m":2017,"richtung":"tangential","stroke":"#57534e","stroke-width":1.6},"links":[{"href":"http://localhost:8080/collections/strassen/items/strassen-76","rel":"self","type":"application/geo+json"}]},{"type":"Feature","id":"strassen-77","geometry":{"type":"LineString","coordinates":[[11.305975,51.319329],[11.303385,51.322458],[11.302495,51.323465],[11.301455,51.324584],[11.299812,51.326316],[11.29939,51.326311]]},"properties":{"name":"Kaisersteig","klasse":"Wohnstraße","breite_m":6.0,"laenge_m":917,"richtung":"tangential","stroke":"#57534e","stroke-width":1.6},"links":[{"href":"http://localhost:8080/collections/strassen/items/strassen-77","rel":"self","type":"application/geo+json"}]},{"type":"Feature","id":"strassen-78","geometry":{"type":"LineString","coordinates":[[11.270261,51.314947],[11.271062,51.314408],[11.275241,51.316315],[11.276793,51.317058],[11.278474,51.31793],[11.282276,51.320017],[11.283261,51.320513],[11.284101,51.320891],[11.284882,51.321194],[11.285795,51.321499],[11.291323,51.323102],[11.292967,51.323618],[11.294381,51.324098],[11.295965,51.324683],[11.299481,51.326049],[11.29939,51.326311]]},"properties":{"name":"Kastanienwinkel","klasse":"Wohnstraße","breite_m":6.0,"laenge_m":2488,"richtung":"radial","stroke":"#57534e","stroke-width":1.6},"links":[{"href":"http://localhost:8080/collections/strassen/items/strassen-78","rel":"self","type":"application/geo+json"}]},{"type":"Feature","id":"strassen-79","geometry":{"type":"LineString","coordinates":[[11.294034,51.314314],[11.293314,51.315133],[11.291284,51.317552],[11.288972,51.320038],[11.288201,51.320922],[11.287354,51.322023],[11.285946,51.324071],[11.285324,51.324841],[11.284652,51.32551],[11.283946,51.326078],[11.283588,51.326025]]},"properties":{"name":"Adlerpfad","klasse":"Wohnstraße","breite_m":6.0,"laenge_m":1513,"richtung":"tangential","stroke":"#57534e","stroke-width":1.6},"links":[{"href":"http://localhost:8080/collections/strassen/items/strassen-79","rel":"self","type":"application/geo+json"}]},{"type":"Feature","id":"strassen-80","geometry":{"type":"LineString","coordinates":[[11.259973,51.323844],[11.26331,51.325717],[11.265141,51.326808],[11.266656,51.327792],[11.269751,51.32992],[11.271204,51.330841],[11.272138,51.331374],[11.273027,51.33183],[11.273769,51.33217],[11.27501,51.332689],[11.275091,51.332741],[11.275209,51.332863],[11.27546,51.333341],[11.275842,51.333358]]},"properties":{"name":"Kranichpfad","klasse":"Wohnstraße","breite_m":6.0,"laenge_m":1546,"richtung":"radial","stroke":"#57534e","stroke-width":1.6},"links":[{"href":"http://localhost:8080/collections/strassen/items/strassen-80","rel":"self","type":"application/geo+json"}]},{"type":"Feature","id":"strassen-81","geometry":{"type":"LineString","coordinates":[[11.29255,51.325582],[11.293024,51.32587],[11.292128,51.326792],[11.291318,51.327577],[11.290663,51.328168],[11.290044,51.328687],[11.289397,51.329192],[11.288724,51.329683],[11.287395,51.330579],[11.284026,51.332743],[11.284485,51.333127]]},"properties":{"name":"Sternwinkel","klasse":"Wohnstraße","breite_m":6.0,"laenge_m":1091,"richtung":"tangential","stroke":"#57534e","stroke-width":1.6},"links":[{"href":"http://localhost:8080/collections/strassen/items/strassen-81","rel":"self","type":"application/geo+json"}]},{"type":"Feature","id":"strassen-82","geometry":{"type":"LineString","coordinates":[[11.282091,51.324566],[11.282162,51.324763],[11.281801,51.325043],[11.281378,51.325286],[11.280257,51.325788],[11.279946,51.325653]]},"properties":{"name":"Glaserstraße","klasse":"Wohnstraße","breite_m":6.0,"laenge_m":225,"richtung":"tangential","stroke":"#57534e","stroke-width":1.6},"links":[{"href":"http://localhost:8080/collections/strassen/items/strassen-82","rel":"self","type":"application/geo+json"}]},{"type":"Feature","id":"strassen-83","geometry":{"type":"LineString","coordinates":[[11.282229,51.32377],[11.282589,51.323836],[11.283744,51.324157],[11.284677,51.324438],[11.285594,51.324737],[11.285597,51.324988]]},"properties":{"name":"Schillersteig","klasse":"Wohnstraße","breite_m":6.0,"laenge_m":286,"richtung":"radial","stroke":"#57534e","stroke-width":1.6},"links":[{"href":"http://localhost:8080/collections/strassen/items/strassen-83","rel":"self","type":"application/geo+json"}]},{"type":"Feature","id":"strassen-84","geometry":{"type":"LineString","coordinates":[[11.276491,51.331649],[11.27687,51.331683],[11.27698,51.331887],[11.277132,51.331994],[11.27805,51.332427],[11.278255,51.332411]]},"properties":{"name":"Burggasse","klasse":"Wohnstraße","breite_m":6.0,"laenge_m":161,"richtung":"radial","stroke":"#57534e","stroke-width":1.6},"links":[{"href":"http://localhost:8080/collections/strassen/items/strassen-84","rel":"self","type":"application/geo+json"}]},{"type":"Feature","id":"strassen-85","geometry":{"type":"LineString","coordinates":[[11.280079,51.325501],[11.279708,51.325389],[11.278471,51.32624],[11.277238,51.326994],[11.27695,51.326804]]},"properties":{"name":"Pappelsteig","klasse":"Wohnstraße","breite_m":6.0,"laenge_m":306,"richtung":"tangential","stroke":"#57534e","stroke-width":1.6},"links":[{"href":"http://localhost:8080/collections/strassen/items/strassen-85","rel":"self","type":"application/geo+json"}]},{"type":"Feature","id":"strassen-86","geometry":{"type":"LineString","coordinates":[[11.293126,51.320732],[11.292949,51.321218],[11.290624,51.324189],[11.289946,51.325022],[11.28939,51.325651],[11.288789,51.326264],[11.288201,51.326797],[11.287568,51.327308],[11.286971,51.327746],[11.286267,51.32822],[11.281626,51.331113],[11.280676,51.331739],[11.279221,51.332758],[11.27857,51.333164],[11.277766,51.333571],[11.277285,51.333768],[11.276784,51.333944],[11.276269,51.334103],[11.275653,51.334119]]},"properties":{"name":"Fleischergasse","klasse":"Wohnstraße","breite_m":6.0,"laenge_m":1970,"richtung":"tangential","stroke":"#57534e","stroke-width":1.6},"links":[{"href":"http://localhost:8080/collections/strassen/items/strassen-86","rel":"self","type":"application/geo+json"}]},{"type":"Feature","id":"strassen-87","geometry":{"type":"LineString","coordinates":[[11.282557,51.316634],[11.281992,51.316799],[11.280953,51.317659],[11.280001,51.31838],[11.279079,51.319022],[11.276951,51.320435],[11.275897,51.321196],[11.275254,51.321703],[11.274572,51.322282],[11.271898,51.324709],[11.271131,51.325338],[11.270397,51.325891],[11.269474,51.326533],[11.268511,51.327151],[11.267349,51.327847],[11.266071,51.328571],[11.266676,51.328945]]},"properties":{"name":"Teichpfad","klasse":"Wohnstraße","breite_m":6.0,"laenge_m":1822,"richtung":"tangential","stroke":"#57534e","stroke-width":1.6},"links":[{"href":"http://localhost:8080/collections/strassen/items/strassen-87","rel":"self","type":"application/geo+json"}]},{"type":"Feature","id":"strassen-88","geometry":{"type":"LineString","coordinates":[[11.297321,51.31821],[11.296607,51.318924],[11.304021,51.321228],[11.307781,51.322472],[11.30849,51.321762]]},"properties":{"name":"Falkenstraße","klasse":"Wohnstraße","breite_m":6.0,"laenge_m":1059,"richtung":"radial","stroke":"#57534e","stroke-width":1.6},"links":[{"href":"http://localhost:8080/collections/strassen/items/strassen-88","rel":"self","type":"application/geo+json"}]},{"type":"Feature","id":"strassen-89","geometry":{"type":"LineString","coordinates":[[11.266981,51.325961],[11.266686,51.326291],[11.268073,51.327152],[11.26975,51.328238],[11.274211,51.33124],[11.27517,51.331861],[11.275859,51.332241],[11.276242,51.332138]]},"properties":{"name":"Färberwinkel","klasse":"Wohnstraße","breite_m":6.0,"laenge_m":991,"richtung":"radial","stroke":"#57534e","stroke-width":1.6},"links":[{"href":"http://localhost:8080/collections/strassen/items/strassen-89","rel":"self","type":"application/geo+json"}]},{"type":"Feature","id":"strassen-90","geometry":{"type":"LineString","coordinates":[[11.28458,51.326678],[11.284759,51.326908],[11.284283,51.32722],[11.283377,51.327772],[11.282268,51.328399],[11.281216,51.328956],[11.280309,51.329398],[11.279458,51.329766],[11.278663,51.330055],[11.277826,51.330292],[11.27642,51.330611],[11.275786,51.330779],[11.275086,51.331027],[11.27454,51.33129],[11.274208,51.331489],[11.273829,51.331759],[11.272606,51.332803],[11.273105,51.333064]]},"properties":{"name":"Amselstraße","klasse":"Wohnstraße","breite_m":6.0,"laenge_m":1161,"richtung":"tangential","stroke":"#57534e","stroke-width":1.6},"links":[{"href":"http://localhost:8080/collections/strassen/items/strassen-90","rel":"self","type":"application/geo+json"}]},{"type":"Feature","id":"strassen-91","geometry":{"type":"LineString","coordinates":[[11.267633,51.313512],[11.266546,51.314349],[11.263863,51.31632],[11.261048,51.318503],[11.259444,51.319631]]},"properties":{"name":"Luchsweg","klasse":"Wohnstraße","breite_m":6.0,"laenge_m":888,"richtung":"tangential","stroke":"#57534e","stroke-width":1.6},"links":[{"href":"http://localhost:8080/collections/strassen/items/strassen-91","rel":"self","type":"application/geo+json"}]},{"type":"Feature","id":"strassen-92","geometry":{"type":"LineString","coordinates":[[11.275842,51.333358],[11.276241,51.333331],[11.276786,51.334044],[11.277522,51.334858]]},"properties":{"name":"Ahornweg","klasse":"Wohnstraße","breite_m":6.0,"laenge_m":220,"richtung":"radial","stroke":"#57534e","stroke-width":1.6},"links":[{"href":"http://localhost:8080/collections/strassen/items/strassen-92","rel":"self","type":"application/geo+json"}]},{"type":"Feature","id":"strassen-93","geometry":{"type":"LineString","coordinates":[[11.280944,51.315903],[11.280689,51.316299],[11.28027,51.316642],[11.278967,51.317648],[11.276321,51.319544],[11.275076,51.320486],[11.273827,51.321517],[11.271701,51.323396],[11.270818,51.32415],[11.269824,51.324941],[11.268854,51.325652],[11.267998,51.326234],[11.267115,51.3268],[11.264867,51.328139],[11.264156,51.327731]]},"properties":{"name":"Storchstraße","klasse":"Wohnstraße","breite_m":6.0,"laenge_m":1835,"richtung":"tangential","stroke":"#57534e","stroke-width":1.6},"links":[{"href":"http://localhost:8080/collections/strassen/items/strassen-93","rel":"self","type":"application/geo+json"}]},{"type":"Feature","id":"strassen-94","geometry":{"type":"LineString","coordinates":[[11.271596,51.317105],[11.272073,51.317305],[11.268271,51.320283],[11.267303,51.321087],[11.265888,51.322311],[11.265463,51.322057]]},"properties":{"name":"Wacholderstraße","klasse":"Wohnstraße","breite_m":6.0,"laenge_m":785,"richtung":"tangential","stroke":"#57534e","stroke-width":1.6},"links":[{"href":"http://localhost:8080/collections/strassen/items/strassen-94","rel":"self","type":"application/geo+json"}]},{"type":"Feature","id":"strassen-95","geometry":{"type":"LineString","coordinates":[[11.273152,51.315361],[11.273798,51.314834],[11.275755,51.315718],[11.27722,51.316414],[11.281311,51.31851],[11.282573,51.319134],[11.283777,51.319688],[11.284927,51.320165],[11.286016,51.320567],[11.287234,51.320972],[11.293728,51.322978],[11.295043,51.323422],[11.296339,51.323888],[11.296843,51.323863]]},"properties":{"name":"Pfarrwinkel","klasse":"Wohnstraße","breite_m":6.0,"laenge_m":1981,"richtung":"radial","stroke":"#57534e","stroke-width":1.6},"links":[{"href":"http://localhost:8080/collections/strassen/items/strassen-95","rel":"self","type":"application/geo+json"}]},{"type":"Feature","id":"strassen-96","geometry":{"type":"LineString","coordinates":[[11.276497,51.327927],[11.276199,51.328114],[11.276686,51.328602],[11.277122,51.329108],[11.277563,51.329694],[11.278282,51.330753],[11.278493,51.331008],[11.278685,51.331187],[11.279148,51.331506],[11.280944,51.332515],[11.282187,51.333263],[11.283468,51.334088],[11.285185,51.33525]]},"properties":{"name":"Rabengasse","klasse":"Wohnstraße","breite_m":6.0,"laenge_m":1053,"richtung":"radial","stroke":"#57534e","stroke-width":1.6},"links":[{"href":"http://localhost:8080/collections/strassen/items/strassen-96","rel":"self","type":"application/geo+json"}]},{"type":"Feature","id":"strassen-97","geometry":{"type":"LineString","coordinates":[[11.306436,51.32122],[11.306947,51.321713],[11.305125,51.323795],[11.302117,51.326942],[11.299579,51.329762]]},"properties":{"name":"Rehwinkel","klasse":"Wohnstraße","breite_m":6.0,"laenge_m":1097,"richtung":"tangential","stroke":"#57534e","stroke-width":1.6},"links":[{"href":"http://localhost:8080/collections/strassen/items/strassen-97","rel":"self","type":"application/geo+json"}]},{"type":"Feature","id":"strassen-98","geometry":{"type":"LineString","coordinates":[[11.295424,51.322144],[11.296019,51.321932],[11.299041,51.322971],[11.302229,51.32412],[11.303179,51.324484]]},"properties":{"name":"Dachspfad","klasse":"Wohnstraße","breite_m":6.0,"laenge_m":621,"richtung":"radial","stroke":"#57534e","stroke-width":1.6},"links":[{"href":"http://localhost:8080/collections/strassen/items/strassen-98","rel":"self","type":"application/geo+json"}]},{"type":"Feature","id":"strassen-99","geometry":{"type":"LineString","coordinates":[[11.294569,51.326924],[11.293875,51.326792],[11.292021,51.328525],[11.291214,51.329224],[11.290445,51.329852],[11.289645,51.330465],[11.28874,51.331116],[11.286615,51.332531],[11.286053,51.332191]]},"properties":{"name":"Birkengasse","klasse":"Wohnstraße","breite_m":6.0,"laenge_m":921,"richtung":"tangential","stroke":"#57534e","stroke-width":1.6},"links":[{"href":"http://localhost:8080/collections/strassen/items/strassen-99","rel":"self","type":"application/geo+json"}]},{"type":"Feature","id":"strassen-100","geometry":{"type":"LineString","coordinates":[[11.265702,51.321009],[11.265344,51.321346],[11.267489,51.322313],[11.271898,51.324389],[11.276156,51.326226],[11.276701,51.32649],[11.277131,51.326729],[11.277602,51.327044],[11.278026,51.327384],[11.279978,51.329249],[11.280523,51.329712],[11.28111,51.330155],[11.282142,51.330831],[11.284714,51.332374],[11.287749,51.334238]]},"properties":{"name":"Wolfsteig","klasse":"Wohnstraße","breite_m":6.0,"laenge_m":2181,"richtung":"radial","stroke":"#57534e","stroke-width":1.6},"links":[{"href":"http://localhost:8080/collections/strassen/items/strassen-100","rel":"self","type":"application/geo+json"}]},{"type":"Feature","id":"strassen-101","geometry":{"type":"LineString","coordinates":[[11.2837,51.325673],[11.283298,51.325635],[11.282511,51.326159],[11.281552,51.326674],[11.280257,51.327271],[11.278634,51.327952],[11.278342,51.328067],[11.277946,51.327976]]},"properties":{"name":"Wallpfad","klasse":"Wohnstraße","breite_m":6.0,"laenge_m":498,"richtung":"tangential","stroke":"#57534e","stroke-width":1.6},"links":[{"href":"http://localhost:8080/collections/strassen/items/strassen-101","rel":"self","type":"application/geo+json"}]},{"type":"Feature","id":"strassen-102","geometry":{"type":"LineString","coordinates":[[11.287637,51.325268],[11.287897,51.325471],[11.28747,51.325897],[11.286943,51.326369],[11.286376,51.326821],[11.285696,51.327309],[11.284983,51.327778],[11.283498,51.32868],[11.281554,51.3298],[11.280424,51.330412],[11.278206,51.331555],[11.277804,51.331812],[11.27711,51.332385],[11.276786,51.332588],[11.2766,51.332672],[11.276294,51.332772],[11.275199,51.332989],[11.274777,51.333103],[11.274277,51.333281],[11.273516,51.333604],[11.273889,51.333991]]},"properties":{"name":"Bäckergasse","klasse":"Wohnstraße","breite_m":6.0,"laenge_m":1447,"richtung":"tangential","stroke":"#57534e","stroke-width":1.6},"links":[{"href":"http://localhost:8080/collections/strassen/items/strassen-102","rel":"self","type":"application/geo+json"}]},{"type":"Feature","id":"strassen-103","geometry":{"type":"LineString","coordinates":[[11.303179,51.324484],[11.304087,51.324636],[11.305859,51.325304],[11.305881,51.326038]]},"properties":{"name":"Lerchensteig","klasse":"Wohnstraße","breite_m":6.0,"laenge_m":291,"richtung":"radial","stroke":"#57534e","stroke-width":1.6},"links":[{"href":"http://localhost:8080/collections/strassen/items/strassen-103","rel":"self","type":"application/geo+json"}]},{"type":"Feature","id":"strassen-104","geometry":{"type":"LineString","coordinates":[[11.283709,51.324761],[11.283678,51.324998],[11.284733,51.325434],[11.285861,51.325931],[11.289824,51.327779],[11.293656,51.329496],[11.296067,51.330601],[11.296717,51.330093]]},"properties":{"name":"Hopfengasse","klasse":"Wohnstraße","breite_m":6.0,"laenge_m":1163,"richtung":"radial","stroke":"#57534e","stroke-width":1.6},"links":[{"href":"http://localhost:8080/collections/strassen/items/strassen-104","rel":"self","type":"application/geo+json"}]},{"type":"Feature","id":"strassen-105","geometry":{"type":"LineString","coordinates":[[11.296461,51.320312],[11.296113,51.320825],[11.297959,51.32141],[11.30039,51.322226],[11.300777,51.322125]]},"properties":{"name":"Hinterkönigssteig","klasse":"Wohnstraße","breite_m":6.0,"laenge_m":427,"richtung":"radial","stroke":"#57534e","stroke-width":1.6},"links":[{"href":"http://localhost:8080/collections/strassen/items/strassen-105","rel":"self","type":"application/geo+json"}]},{"type":"Feature","id":"strassen-106","geometry":{"type":"LineString","coordinates":[[11.300584,51.322175],[11.300736,51.3224],[11.303151,51.323234],[11.305349,51.324017]]},"properties":{"name":"Unterhirschsteig","klasse":"Wohnstraße","breite_m":6.0,"laenge_m":395,"richtung":"radial","stroke":"#57534e","stroke-width":1.6},"links":[{"href":"http://localhost:8080/collections/strassen/items/strassen-106","rel":"self","type":"application/geo+json"}]},{"type":"Feature","id":"strassen-107","geometry":{"type":"LineString","coordinates":[[11.28332,51.325174],[11.282908,51.325106],[11.282315,51.325545],[11.281635,51.325932],[11.280903,51.32628],[11.279204,51.327019],[11.278879,51.326869]]},"properties":{"name":"Hintermaurerstraße","klasse":"Wohnstraße","breite_m":6.0,"laenge_m":394,"richtung":"tangential","stroke":"#57534e","stroke-width":1.6},"links":[{"href":"http://localhost:8080/collections/strassen/items/strassen-107","rel":"self","type":"application/geo+json"}]},{"type":"Feature","id":"strassen-108","geometry":{"type":"LineString","coordinates":[[11.289026,51.323543],[11.28944,51.323617],[11.2912,51.324147],[11.292629,51.324612],[11.29403,51.325107],[11.295693,51.325749],[11.295686,51.326006]]},"properties":{"name":"Untergoethewinkel","klasse":"Wohnstraße","breite_m":6.0,"laenge_m":555,"richtung":"radial","stroke":"#57534e","stroke-width":1.6},"links":[{"href":"http://localhost:8080/collections/strassen/items/strassen-108","rel":"self","type":"application/geo+json"}]},{"type":"Feature","id":"strassen-109","geometry":{"type":"LineString","coordinates":[[11.288407,51.318936],[11.288829,51.319113],[11.287768,51.320225],[11.286857,51.321306],[11.286135,51.322285],[11.284971,51.324007],[11.284466,51.324653],[11.284046,51.32462]]},"properties":{"name":"Oberbärenstraße","klasse":"Wohnstraße","breite_m":6.0,"laenge_m":753,"richtung":"tangential","stroke":"#57534e","stroke-width":1.6},"links":[{"href":"http://localhost:8080/collections/strassen/items/strassen-109","rel":"self","type":"application/geo+json"}]},{"type":"Feature","id":"strassen-110","geometry":{"type":"LineString","coordinates":[[11.294333,51.321097],[11.29413,51.321698],[11.291402,51.325024],[11.290679,51.325842],[11.290026,51.32652],[11.289388,51.327118],[11.288702,51.327695],[11.287969,51.328248],[11.287116,51.328833],[11.283801,51.330928],[11.280236,51.333273],[11.279476,51.333712],[11.278761,51.334074],[11.278008,51.334404],[11.277125,51.33474]]},"properties":{"name":"Oberrosenweg","klasse":"Wohnstraße","breite_m":6.0,"laenge_m":1964,"richtung":"tangential","stroke":"#57534e","stroke-width":1.6},"links":[{"href":"http://localhost:8080/collections/strassen/items/strassen-110","rel":"self","type":"application/geo+json"}]},{"type":"Feature","id":"strassen-111","geometry":{"type":"LineString","coordinates":[[11.297442,51.323442],[11.297653,51.323707],[11.296336,51.325058],[11.295162,51.32621],[11.294789,51.326091]]},"properties":{"name":"Hinterulmenweg","klasse":"Wohnstraße","breite_m":6.0,"laenge_m":390,"richtung":"tangential","stroke":"#57534e","stroke-width":1.6},"links":[{"href":"http://localhost:8080/collections/strassen/items/strassen-111","rel":"self","type":"application/geo+json"}]},{"type":"Feature","id":"strassen-112","geometry":{"type":"LineString","coordinates":[[11.300565,51.317832],[11.297602,51.321487],[11.296678,51.322565],[11.295662,51.323692],[11.296059,51.324033]]},"properties":{"name":"Hintergoethesteig","klasse":"Wohnstraße","breite_m":6.0,"laenge_m":783,"richtung":"tangential","stroke":"#57534e","stroke-width":1.6},"links":[{"href":"http://localhost:8080/collections/strassen/items/strassen-112","rel":"self","type":"application/geo+json"}]},{"type":"Feature","id":"strassen-113","geometry":{"type":"LineString","coordinates":[[11.284592,51.320759],[11.284248,51.320606],[11.283318,51.321428],[11.282499,51.32203],[11.281752,51.322477],[11.28015,51.323297],[11.279584,51.323654],[11.279294,51.323877],[11.27897,51.324174],[11.277712,51.325628],[11.277342,51.325992],[11.276934,51.32634],[11.27626,51.32683],[11.275443,51.327336],[11.274669,51.327766],[11.272475,51.328927],[11.272687,51.329142]]},"properties":{"name":"Hinterstorchweg","klasse":"Wohnstraße","breite_m":6.0,"laenge_m":1305,"richtung":"tangential","stroke":"#57534e","stroke-width":1.6},"links":[{"href":"http://localhost:8080/collections/strassen/items/strassen-113","rel":"self","type":"application/geo+json"}]},{"type":"Feature","id":"strassen-114","geometry":{"type":"LineString","coordinates":[[11.29256,51.325709],[11.292576,51.326086],[11.294331,51.326772],[11.294525,51.327091]]},"properties":{"name":"Großer marktwinkel","klasse":"Wohnstraße","breite_m":6.0,"laenge_m":224,"richtung":"radial","stroke":"#57534e","stroke-width":1.6},"links":[{"href":"http://localhost:8080/collections/strassen/items/strassen-114","rel":"self","type":"application/geo+json"}]},{"type":"Feature","id":"strassen-115","geometry":{"type":"LineString","coordinates":[[11.267912,51.32592],[11.268352,51.32566],[11.271216,51.327324],[11.27211,51.327883],[11.272889,51.328412],[11.273622,51.328966],[11.274235,51.329487],[11.274805,51.330027],[11.275388,51.330647],[11.275814,51.331156],[11.275431,51.331277]]},"properties":{"name":"Alter quellpfad","klasse":"Wohnstraße","breite_m":6.0,"laenge_m":880,"richtung":"radial","stroke":"#57534e","stroke-width":1.6},"links":[{"href":"http://localhost:8080/collections/strassen/items/strassen-115","rel":"self","type":"application/geo+json"}]},{"type":"Feature","id":"strassen-116","geometry":{"type":"LineString","coordinates":[[11.276211,51.322523],[11.276149,51.322774],[11.275428,51.323423],[11.273558,51.325236],[11.272953,51.325761],[11.27231,51.326268],[11.271242,51.327021],[11.269869,51.327891],[11.268359,51.328775],[11.266661,51.329704]]},"properties":{"name":"Kleiner goethesteig","klasse":"Wohnstraße","breite_m":6.0,"laenge_m":1049,"richtung":"tangential","stroke":"#57534e","stroke-width":1.6},"links":[{"href":"http://localhost:8080/collections/strassen/items/strassen-116","rel":"self","type":"application/geo+json"}]},{"type":"Feature","id":"strassen-117","geometry":{"type":"LineString","coordinates":[[11.303747,51.319555],[11.302871,51.3193],[11.301815,51.320658],[11.300608,51.322143]]},"properties":{"name":"Großer habichtgasse","klasse":"Wohnstraße","breite_m":6.0,"laenge_m":421,"richtung":"tangential","stroke":"#57534e","stroke-width":1.6},"links":[{"href":"http://localhost:8080/collections/strassen/items/strassen-117","rel":"self","type":"application/geo+json"}]},{"type":"Feature","id":"strassen-118","geometry":{"type":"LineString","coordinates":[[11.281282,51.324469],[11.281282,51.32473],[11.281605,51.324934],[11.282531,51.325473],[11.288257,51.328695],[11.28948,51.329349],[11.290734,51.32998],[11.294418,51.331702]]},"properties":{"name":"Oberrübensteig","klasse":"Wohnstraße","breite_m":6.0,"laenge_m":1229,"richtung":"radial","stroke":"#57534e","stroke-width":1.6},"links":[{"href":"http://localhost:8080/collections/strassen/items/strassen-118","rel":"self","type":"application/geo+json"}]},{"type":"Feature","id":"strassen-119","geometry":{"type":"LineString","coordinates":[[11.292555,51.313608],[11.290907,51.315421],[11.290084,51.316286],[11.289217,51.317134],[11.2873,51.318927],[11.286154,51.32009],[11.283749,51.322791],[11.283229,51.323433],[11.282756,51.324088],[11.282361,51.323987]]},"properties":{"name":"Vorderulmenweg","klasse":"Wohnstraße","breite_m":6.0,"laenge_m":1382,"richtung":"tangential","stroke":"#57534e","stroke-width":1.6},"links":[{"href":"http://localhost:8080/collections/strassen/items/strassen-119","rel":"self","type":"application/geo+json"}]},{"type":"Feature","id":"strassen-120","geometry":{"type":"LineString","coordinates":[[11.26262,51.322871],[11.261562,51.323262],[11.260112,51.324284]]},"properties":{"name":"Unteradlerweg","klasse":"Wohnstraße","breite_m":6.0,"laenge_m":238,"richtung":"tangential","stroke":"#57534e","stroke-width":1.6},"links":[{"href":"http://localhost:8080/collections/strassen/items/strassen-120","rel":"self","type":"application/geo+json"}]},{"type":"Feature","id":"strassen-121","geometry":{"type":"LineString","coordinates":[[11.290602,51.316747],[11.290346,51.316688],[11.291342,51.317048],[11.292462,51.317414],[11.295693,51.318355],[11.29675,51.318781]]},"properties":{"name":"Alter wolfstraße","klasse":"Wohnstraße","breite_m":6.0,"laenge_m":522,"richtung":"radial","stroke":"#57534e","stroke-width":1.6},"links":[{"href":"http://localhost:8080/collections/strassen/items/strassen-121","rel":"self","type":"application/geo+json"}]},{"type":"Feature","id":"strassen-122","geometry":{"type":"LineString","coordinates":[[11.285175,51.314986],[11.285867,51.315335],[11.282483,51.318329],[11.281563,51.319066],[11.28065,51.319713],[11.279927,51.320176],[11.277791,51.321483],[11.277091,51.32196],[11.276503,51.322402],[11.276211,51.322523]]},"properties":{"name":"Kleiner böttchersteig","klasse":"Wohnstraße","breite_m":6.0,"laenge_m":1110,"richtung":"tangential","stroke":"#57534e","stroke-width":1.6},"links":[{"href":"http://localhost:8080/collections/strassen/items/strassen-122","rel":"self","type":"application/geo+json"}]},{"type":"Feature","id":"strassen-123","geometry":{"type":"LineString","coordinates":[[11.295117,51.325952],[11.295058,51.326182],[11.297554,51.327211],[11.298816,51.327711],[11.300104,51.328186],[11.301816,51.328775]]},"properties":{"name":"Großer teichgasse","klasse":"Wohnstraße","breite_m":6.0,"laenge_m":578,"richtung":"radial","stroke":"#57534e","stroke-width":1.6},"links":[{"href":"http://localhost:8080/collections/strassen/items/strassen-123","rel":"self","type":"application/geo+json"}]},{"type":"Feature","id":"strassen-124","geometry":{"type":"LineString","coordinates":[[11.284289,51.333245],[11.283987,51.333784],[11.282385,51.334713],[11.280792,51.335538]]},"properties":{"name":"Oberkupferstraße","klasse":"Wohnstraße","breite_m":6.0,"laenge_m":360,"richtung":"tangential","stroke":"#57534e","stroke-width":1.6},"links":[{"href":"http://localhost:8080/collections/strassen/items/strassen-124","rel":"self","type":"application/geo+json"}]},{"type":"Feature","id":"strassen-125","geometry":{"type":"LineString","coordinates":[[11.26533,51.326931],[11.264698,51.327397],[11.266184,51.328398],[11.268916,51.330343],[11.270184,51.331176],[11.270935,51.331621],[11.271629,51.331999],[11.272349,51.332357],[11.273548,51.332915],[11.273893,51.333104],[11.274115,51.333269],[11.274295,51.333453],[11.274901,51.334307],[11.275552,51.334464]]},"properties":{"name":"Neuer bärenstraße","klasse":"Wohnstraße","breite_m":6.0,"laenge_m":1172,"richtung":"radial","stroke":"#57534e","stroke-width":1.6},"links":[{"href":"http://localhost:8080/collections/strassen/items/strassen-125","rel":"self","type":"application/geo+json"}]},{"type":"Feature","id":"strassen-126","geometry":{"type":"LineString","coordinates":[[11.294428,51.326931],[11.29485,51.326775],[11.298295,51.32821],[11.299472,51.328659],[11.300673,51.329084],[11.300315,51.329432]]},"properties":{"name":"Hintertöpferweg","klasse":"Wohnstraße","breite_m":6.0,"laenge_m":560,"richtung":"radial","stroke":"#57534e","stroke-width":1.6},"links":[{"href":"http://localhost:8080/collections/strassen/items/strassen-126","rel":"self","type":"application/geo+json"}]},{"type":"Feature","id":"strassen-127","geometry":{"type":"LineString","coordinates":[[11.288994,51.318355],[11.288855,51.318661],[11.289931,51.319077],[11.29093,51.319433],[11.29205,51.319799],[11.293291,51.320177],[11.292884,51.320659]]},"properties":{"name":"Großer grafengasse","klasse":"Wohnstraße","breite_m":6.0,"laenge_m":448,"richtung":"radial","stroke":"#57534e","stroke-width":1.6},"links":[{"href":"http://localhost:8080/collections/strassen/items/strassen-127","rel":"self","type":"application/geo+json"}]},{"type":"Feature","id":"strassen-128","geometry":{"type":"LineString","coordinates":[[11.301906,51.326466],[11.301948,51.326651],[11.304317,51.327536],[11.303749,51.32799]]},"properties":{"name":"Hinterseegasse","klasse":"Wohnstraße","breite_m":6.0,"laenge_m":277,"richtung":"radial","stroke":"#57534e","stroke-width":1.6},"links":[{"href":"http://localhost:8080/collections/strassen/items/strassen-128","rel":"self","type":"application/geo+json"}]},{"type":"Feature","id":"strassen-129","geometry":{"type":"LineString","coordinates":[[11.287348,51.316002],[11.288023,51.316238],[11.289741,51.316959],[11.290346,51.316688]]},"properties":{"name":"Neuer teichsteig","klasse":"Wohnstraße","breite_m":6.0,"laenge_m":250,"richtung":"radial","stroke":"#57534e","stroke-width":1.6},"links":[{"href":"http://localhost:8080/collections/strassen/items/strassen-129","rel":"self","type":"application/geo+json"}]},{"type":"Feature","id":"strassen-130","geometry":{"type":"LineString","coordinates":[[11.274575,51.31759],[11.274703,51.317862],[11.26873,51.32279],[11.26732,51.323926],[11.266839,51.323648]]},"properties":{"name":"Neuer hügelpfad","klasse":"Wohnstraße","breite_m":6.0,"laenge_m":925,"richtung":"tangential","stroke":"#57534e","stroke-width":1.6},"links":[{"href":"http://localhost:8080/collections/strassen/items/strassen-130","rel":"self","type":"application/geo+json"}]},{"type":"Feature","id":"strassen-131","geometry":{"type":"LineString","coordinates":[[11.267342,51.323666],[11.266869,51.323987],[11.268643,51.324902],[11.271437,51.326399],[11.272636,51.32707],[11.273456,51.327574],[11.274365,51.328223],[11.2751,51.328866],[11.275789,51.329613],[11.276138,51.330066],[11.276406,51.330464],[11.276824,51.330457]]},"properties":{"name":"Kleiner königswinkel","klasse":"Wohnstraße","breite_m":6.0,"laenge_m":1069,"richtung":"radial","stroke":"#57534e","stroke-width":1.6},"links":[{"href":"http://localhost:8080/collections/strassen/items/strassen-131","rel":"self","type":"application/geo+json"}]},{"type":"Feature","id":"strassen-132","geometry":{"type":"LineString","coordinates":[[11.297392,51.326162],[11.29746,51.32642],[11.299214,51.327107],[11.299268,51.327056]]},"properties":{"name":"Unterburgwinkel","klasse":"Wohnstraße","breite_m":6.0,"laenge_m":180,"richtung":"radial","stroke":"#57534e","stroke-width":1.6},"links":[{"href":"http://localhost:8080/collections/strassen/items/strassen-132","rel":"self","type":"application/geo+json"}]},{"type":"Feature","id":"strassen-133","geometry":{"type":"LineString","coordinates":[[11.294895,51.324542],[11.295207,51.324702],[11.293523,51.326418],[11.293875,51.326792]]},"properties":{"name":"Großer richterpfad","klasse":"Wohnstraße","breite_m":6.0,"laenge_m":300,"richtung":"tangential","stroke":"#57534e","stroke-width":1.6},"links":[{"href":"http://localhost:8080/collections/strassen/items/strassen-133","rel":"self","type":"application/geo+json"}]},{"type":"Feature","id":"strassen-134","geometry":{"type":"LineString","coordinates":[[11.291647,51.315254],[11.292526,51.315636],[11.296425,51.316869]]},"properties":{"name":"Hintersternwinkel","klasse":"Wohnstraße","breite_m":6.0,"laenge_m":378,"richtung":"radial","stroke":"#57534e","stroke-width":1.6},"links":[{"href":"http://localhost:8080/collections/strassen/items/strassen-134","rel":"self","type":"application/geo+json"}]},{"type":"Feature","id":"strassen-135","geometry":{"type":"LineString","coordinates":[[11.288863,51.324254],[11.28924,51.324344],[11.290063,51.324601],[11.292196,51.325308],[11.291992,51.325655]]},"properties":{"name":"Neuer seeweg","klasse":"Wohnstraße","breite_m":6.0,"laenge_m":301,"richtung":"radial","stroke":"#57534e","stroke-width":1.6},"links":[{"href":"http://localhost:8080/collections/strassen/items/strassen-135","rel":"self","type":"application/geo+json"}]},{"type":"Feature","id":"strassen-136","geometry":{"type":"LineString","coordinates":[[11.303844,51.321933],[11.304049,51.322142],[11.306781,51.323064],[11.307279,51.322306]]},"properties":{"name":"Unterhabichtwinkel","klasse":"Wohnstraße","breite_m":6.0,"laenge_m":334,"richtung":"radial","stroke":"#57534e","stroke-width":1.6},"links":[{"href":"http://localhost:8080/collections/strassen/items/strassen-136","rel":"self","type":"application/geo+json"}]},{"type":"Feature","id":"strassen-137","geometry":{"type":"LineString","coordinates":[[11.295923,51.328939],[11.296106,51.329527],[11.292764,51.332363]]},"properties":{"name":"Großer rabenstraße","klasse":"Wohnstraße","breite_m":6.0,"laenge_m":459,"richtung":"tangential","stroke":"#57534e","stroke-width":1.6},"links":[{"href":"http://localhost:8080/collections/strassen/items/strassen-137","rel":"self","type":"application/geo+json"}]},{"type":"Feature","id":"strassen-138","geometry":{"type":"LineString","coordinates":[[11.301057,51.319284],[11.301672,51.319494],[11.300546,51.320911],[11.299526,51.322119],[11.299141,51.322188]]},"properties":{"name":"Vorderböttcherweg","klasse":"Wohnstraße","breite_m":6.0,"laenge_m":405,"richtung":"tangential","stroke":"#57534e","stroke-width":1.6},"links":[{"href":"http://localhost:8080/collections/strassen/items/strassen-138","rel":"self","type":"application/geo+json"}]},{"type":"Feature","id":"strassen-139","geometry":{"type":"LineString","coordinates":[[11.268519,51.317508],[11.268231,51.31785],[11.266989,51.318794],[11.267105,51.31895]]},"properties":{"name":"Hinterfärbersteig","klasse":"Wohnstraße","breite_m":6.0,"laenge_m":198,"richtung":"tangential","stroke":"#57534e","stroke-width":1.6},"links":[{"href":"http://localhost:8080/collections/strassen/items/strassen-139","rel":"self","type":"application/geo+json"}]},{"type":"Feature","id":"strassen-140","geometry":{"type":"LineString","coordinates":[[11.276277,51.331591],[11.276656,51.331699],[11.276324,51.331757],[11.276006,51.331842],[11.275721,51.331962],[11.275481,51.332116],[11.2749,51.332652],[11.274597,51.332868],[11.274777,51.333103]]},"properties":{"name":"Hinterfalkenpfad","klasse":"Wohnstraße","breite_m":6.0,"laenge_m":258,"richtung":"tangential","stroke":"#57534e","stroke-width":1.6},"links":[{"href":"http://localhost:8080/collections/strassen/items/strassen-140","rel":"self","type":"application/geo+json"}]},{"type":"Feature","id":"strassen-141","geometry":{"type":"LineString","coordinates":[[11.267434,51.330633],[11.2674,51.331017],[11.268965,51.332167],[11.270837,51.333434]]},"properties":{"name":"Alter wiesenweg","klasse":"Wohnstraße","breite_m":6.0,"laenge_m":403,"richtung":"radial","stroke":"#57534e","stroke-width":1.6},"links":[{"href":"http://localhost:8080/collections/strassen/items/strassen-141","rel":"self","type":"application/geo+json"}]},{"type":"Feature","id":"strassen-142","geometry":{"type":"LineString","coordinates":[[11.302067,51.322112],[11.302218,51.322343],[11.30484,51.32324],[11.304372,51.323669]]},"properties":{"name":"Hinterahornpfad","klasse":"Wohnstraße","breite_m":6.0,"laenge_m":294,"richtung":"radial","stroke":"#57534e","stroke-width":1.6},"links":[{"href":"http://localhost:8080/collections/strassen/items/strassen-142","rel":"self","type":"application/geo+json"}]},{"type":"Feature","id":"strassen-143","geometry":{"type":"LineString","coordinates":[[11.291217,51.313111],[11.293401,51.313909]]},"properties":{"name":"Alter böttcherpfad","klasse":"Wohnstraße","breite_m":6.0,"laenge_m":176,"richtung":"radial","stroke":"#57534e","stroke-width":1.6},"links":[{"href":"http://localhost:8080/collections/strassen/items/strassen-143","rel":"self","type":"application/geo+json"}]},{"type":"Feature","id":"strassen-144","geometry":{"type":"LineString","coordinates":[[11.302459,51.325338],[11.302085,51.325391],[11.299244,51.328433],[11.298089,51.329593],[11.297582,51.329348]]},"properties":{"name":"Unterbärenwinkel","klasse":"Wohnstraße","breite_m":6.0,"laenge_m":615,"richtung":"tangential","stroke":"#57534e","stroke-width":1.6},"links":[{"href":"http://localhost:8080/collections/strassen/items/strassen-144","rel":"self","type":"application/geo+json"}]},{"type":"Feature","id":"strassen-145","geometry":{"type":"LineString","coordinates":[[11.276588,51.317939],[11.276934,51.317659],[11.27876,51.318646],[11.28256,51.320842],[11.283451,51.321296],[11.28421,51.321621],[11.284808,51.321835],[11.285425,51.322028],[11.289632,51.323189],[11.29119,51.323652],[11.292524,51.324073],[11.292153,51.324457]]},"properties":{"name":"Kleiner sonnenweg","klasse":"Wohnstraße","breite_m":6.0,"laenge_m":1401,"richtung":"radial","stroke":"#57534e","stroke-width":1.6},"links":[{"href":"http://localhost:8080/collections/strassen/items/strassen-145","rel":"self","type":"application/geo+json"}]},{"type":"Feature","id":"strassen-146","geometry":{"type":"LineString","coordinates":[[11.278374,51.332574],[11.278894,51.332469],[11.279491,51.332806],[11.28031,51.333311],[11.281255,51.333939],[11.283834,51.335776]]},"properties":{"name":"Vorderglaserstraße","klasse":"Wohnstraße","breite_m":6.0,"laenge_m":542,"richtung":"radial","stroke":"#57534e","stroke-width":1.6},"links":[{"href":"http://localhost:8080/collections/strassen/items/strassen-146","rel":"self","type":"application/geo+json"}]},{"type":"Feature","id":"strassen-147","geometry":{"type":"LineString","coordinates":[[11.289253,51.331902],[11.289037,51.332335],[11.28764,51.33329],[11.286516,51.33401],[11.28536,51.334711],[11.28417,51.335389],[11.283034,51.335996]]},"properties":{"name":"Hinterrosenstraße","klasse":"Wohnstraße","breite_m":6.0,"laenge_m":634,"richtung":"tangential","stroke":"#57534e","stroke-width":1.6},"links":[{"href":"http://localhost:8080/collections/strassen/items/strassen-147","rel":"self","type":"application/geo+json"}]},{"type":"Feature","id":"strassen-148","geometry":{"type":"LineString","coordinates":[[11.271111,51.317494],[11.270594,51.317182],[11.267738,51.319343],[11.26683,51.320086],[11.26589,51.320903],[11.265461,51.321079]]},"properties":{"name":"Unterbachweg","klasse":"Wohnstraße","breite_m":6.0,"laenge_m":614,"richtung":"tangential","stroke":"#57534e","stroke-width":1.6},"links":[{"href":"http://localhost:8080/collections/strassen/items/strassen-148","rel":"self","type":"application/geo+json"}]},{"type":"Feature","id":"strassen-149","geometry":{"type":"LineString","coordinates":[[11.273779,51.313193],[11.27175,51.314937],[11.270922,51.315269]]},"properties":{"name":"Kleiner wiesenpfad","klasse":"Wohnstraße","breite_m":6.0,"laenge_m":308,"richtung":"tangential","stroke":"#57534e","stroke-width":1.6},"links":[{"href":"http://localhost:8080/collections/strassen/items/strassen-149","rel":"self","type":"application/geo+json"}]},{"type":"Feature","id":"strassen-150","geometry":{"type":"LineString","coordinates":[[11.277181,51.328075],[11.277158,51.328322],[11.27772,51.328949],[11.278869,51.330358],[11.279168,51.330665],[11.279512,51.330953],[11.280223,51.331422],[11.282162,51.332547],[11.28266,51.332258]]},"properties":{"name":"Oberkaisersteig","klasse":"Wohnstraße","breite_m":6.0,"laenge_m":667,"richtung":"radial","stroke":"#57534e","stroke-width":1.6},"links":[{"href":"http://localhost:8080/collections/strassen/items/strassen-150","rel":"self","type":"application/geo+json"}]},{"type":"Feature","id":"strassen-151","geometry":{"type":"LineString","coordinates":[[11.299292,51.326907],[11.299025,51.327075],[11.297866,51.328232],[11.296706,51.329304],[11.296061,51.32938]]},"properties":{"name":"Unterrübengasse","klasse":"Wohnstraße","breite_m":6.0,"laenge_m":368,"richtung":"tangential","stroke":"#57534e","stroke-width":1.6},"links":[{"href":"http://localhost:8080/collections/strassen/items/strassen-151","rel":"self","type":"application/geo+json"}]},{"type":"Feature","id":"strassen-152","geometry":{"type":"LineString","coordinates":[[11.282557,51.316634],[11.28224,51.316986],[11.284401,51.317939],[11.286693,51.3189],[11.288742,51.319698],[11.290749,51.3204],[11.291053,51.320083]]},"properties":{"name":"Oberbergweg","klasse":"Wohnstraße","breite_m":6.0,"laenge_m":790,"richtung":"radial","stroke":"#57534e","stroke-width":1.6},"links":[{"href":"http://localhost:8080/collections/strassen/items/strassen-152","rel":"self","type":"application/geo+json"}]},{"type":"Feature","id":"strassen-153","geometry":{"type":"LineString","coordinates":[[11.287242,51.32517],[11.286942,51.325267],[11.286513,51.325693],[11.286119,51.326047],[11.285627,51.326445],[11.285105,51.326828],[11.284759,51.326908]]},"properties":{"name":"Unterschillerstraße","klasse":"Wohnstraße","breite_m":6.0,"laenge_m":265,"richtung":"tangential","stroke":"#57534e","stroke-width":1.6},"links":[{"href":"http://localhost:8080/collections/strassen/items/strassen-153","rel":"self","type":"application/geo+json"}]},{"type":"Feature","id":"strassen-154","geometry":{"type":"LineString","coordinates":[[11.296202,51.322891],[11.296668,51.322765],[11.30233,51.324829],[11.302819,51.324911]]},"properties":{"name":"Hinterfinkenweg","klasse":"Wohnstraße","breite_m":6.0,"laenge_m":527,"richtung":"radial","stroke":"#57534e","stroke-width":1.6},"links":[{"href":"http://localhost:8080/collections/strassen/items/strassen-154","rel":"self","type":"application/geo+json"}]},{"type":"Feature","id":"strassen-155","geometry":{"type":"LineString","coordinates":[[11.260789,51.325607],[11.260593,51.326463],[11.262886,51.327876],[11.262697,51.328597]]},"properties":{"name":"Alter kantorwinkel","klasse":"Wohnstraße","breite_m":6.0,"laenge_m":402,"richtung":"radial","stroke":"#57534e","stroke-width":1.6},"links":[{"href":"http://localhost:8080/collections/strassen/items/strassen-155","rel":"self","type":"application/geo+json"}]},{"type":"Feature","id":"strassen-156","geometry":{"type":"LineString","coordinates":[[11.276231,51.313246],[11.28106,51.31545],[11.281159,51.316003]]},"properties":{"name":"Alter müllergasse","klasse":"Wohnstraße","breite_m":6.0,"laenge_m":478,"richtung":"radial","stroke":"#57534e","stroke-width":1.6},"links":[{"href":"http://localhost:8080/collections/strassen/items/strassen-156","rel":"self","type":"application/geo+json"}]},{"type":"Feature","id":"strassen-157","geometry":{"type":"LineString","coordinates":[[11.294145,51.324018],[11.293742,51.32444],[11.295327,51.325024],[11.297658,51.325948],[11.297677,51.326183]]},"properties":{"name":"Großer sternsteig","klasse":"Wohnstraße","breite_m":6.0,"laenge_m":401,"richtung":"radial","stroke":"#57534e","stroke-width":1.6},"links":[{"href":"http://localhost:8080/collections/strassen/items/strassen-157","rel":"self","type":"application/geo+json"}]},{"type":"Feature","id":"strassen-158","geometry":{"type":"LineString","coordinates":[[11.281109,51.315727],[11.281974,51.31565],[11.287433,51.318044],[11.287894,51.317866]]},"properties":{"name":"Hinterklostergasse","klasse":"Wohnstraße","breite_m":6.0,"laenge_m":562,"richtung":"radial","stroke":"#57534e","stroke-width":1.6},"links":[{"href":"http://localhost:8080/collections/strassen/items/strassen-158","rel":"self","type":"application/geo+json"}]},{"type":"Feature","id":"strassen-159","geometry":{"type":"LineString","coordinates":[[11.282847,51.322319],[11.283164,51.322494],[11.282537,51.323008],[11.281927,51.323439],[11.281505,51.323683],[11.280775,51.324032],[11.280459,51.32424],[11.280274,51.324422],[11.279918,51.324874],[11.27963,51.325184],[11.279708,51.325389]]},"properties":{"name":"Vordersternpfad","klasse":"Wohnstraße","breite_m":6.0,"laenge_m":445,"richtung":"tangential","stroke":"#57534e","stroke-width":1.6},"links":[{"href":"http://localhost:8080/collections/strassen/items/strassen-159","rel":"self","type":"application/geo+json"}]},{"type":"Feature","id":"strassen-160","geometry":{"type":"LineString","coordinates":[[11.2887,51.324964],[11.288926,51.324816],[11.289638,51.325051],[11.290347,51.325289],[11.290287,51.325493]]},"properties":{"name":"Kleiner wacholderpfad","klasse":"Wohnstraße","breite_m":6.0,"laenge_m":158,"richtung":"radial","stroke":"#57534e","stroke-width":1.6},"links":[{"href":"http://localhost:8080/collections/strassen/items/strassen-160","rel":"self","type":"application/geo+json"}]},{"type":"Feature","id":"strassen-161","geometry":{"type":"LineString","coordinates":[[11.284093,51.313212],[11.288992,51.315227],[11.290454,51.315799],[11.29135,51.316122],[11.292365,51.31646],[11.294849,51.317211],[11.29545,51.316561]]},"properties":{"name":"Obereichensteig","klasse":"Wohnstraße","breite_m":6.0,"laenge_m":956,"richtung":"radial","stroke":"#57534e","stroke-width":1.6},"links":[{"href":"http://localhost:8080/collections/strassen/items/strassen-161","rel":"self","type":"application/geo+json"}]},{"type":"Feature","id":"strassen-162","geometry":{"type":"LineString","coordinates":[[11.288256,51.312706],[11.287228,51.313745],[11.286212,51.314704],[11.285521,51.31516]]},"properties":{"name":"Alter bärenwinkel","klasse":"Wohnstraße","breite_m":6.0,"laenge_m":334,"richtung":"tangential","stroke":"#57534e","stroke-width":1.6},"links":[{"href":"http://localhost:8080/collections/strassen/items/strassen-162","rel":"self","type":"application/geo+json"}]}]}